{"type":"FeatureCollection","features":[{"type":"Feature","properties":{"etiqueta":"Agronomía"},"geometry":{"type":"Polygon","coordinates":[[[-58.47589,-34.591729],[-58.478832,-34.599676],[-58.483457,-34.597764],[-58.497175,-34.596823],[-58.503544,-34.594456],[-58.503083,-34.594388],[-58.503472,-34.593959],[-58.488794,-34.584824],[-58.484711,-34.589125],[-58.481289,-34.590305],[-58.47589,-34.591729]]]}},{"type":"Feature","properties":{"etiqueta":"Almagro"},"geometry":{"type":"Polygon","coordinates":[[[-58.416004,-34.59786],[-58.411923,-34.598008],[-58.412304,-34.600357],[-58.413912,-34.607251],[-58.414102,-34.607912],[-58.414664,-34.608195],[-58.414471,-34.610741],[-58.413318,-34.61286],[-58.412874,-34.614121],[-58.412547,-34.620647],[-58.423524,-34.621491],[-58.427798,-34.622079],[-58.429255,-34.615111],[-58.430031,-34.615454],[-58.430672,-34.605946],[-58.433337,-34.602679],[-58.432243,-34.602139],[-58.430278,-34.599887],[-58.429432,-34.599131],[-58.426788,-34.597949],[-58.422843,-34.597718],[-58.416004,-34.59786]]]}},{"type":"Feature","properties":{"etiqueta":"Balvanera"},"geometry":{"type":"Polygon","coordinates":[[[-58.392935,-34.599642],[-58.392392,-34.60316],[-58.391811,-34.611285],[-58.391701,-34.618164],[-58.403517,-34.618845],[-58.412547,-34.620647],[-58.412874,-34.614121],[-58.413318,-34.61286],[-58.414471,-34.610741],[-58.414664,-34.608195],[-58.414102,-34.607912],[-58.413912,-34.607251],[-58.412304,-34.600357],[-58.411923,-34.598008],[-58.410298,-34.598098],[-58.404511,-34.598041],[-58.402012,-34.599375],[-58.398727,-34.599765],[-58.392935,-34.599642]]]}},{"type":"Feature","properties":{"etiqueta":"Barracas"},"geometry":{"type":"Polygon","coordinates":[[[-58.370663,-34.629498],[-58.370235,-34.633757],[-58.367654,-34.650142],[-58.369662,-34.651338],[-58.370017,-34.652106],[-58.369676,-34.653236],[-58.369792,-34.653582],[-58.370318,-34.653985],[-58.372417,-34.655007],[-58.373631,-34.6564],[-58.374124,-34.656769],[-58.375107,-34.656949],[-58.376377,-34.656826],[-58.376618,-34.656946],[-58.377386,-34.65693],[-58.377637,-34.657125],[-58.379254,-34.657456],[-58.383414,-34.657527],[-58.385179,-34.65785],[-58.386447,-34.65871],[-58.38691,-34.65941],[-58.38772,-34.660165],[-58.388139,-34.66039],[-58.389045,-34.660506],[-58.38919,-34.660637],[-58.390758,-34.66103],[-58.391591,-34.661907],[-58.392474,-34.662195],[-58.393184,-34.662297],[-58.394306,-34.662212],[-58.395575,-34.661862],[-58.395979,-34.66185],[-58.396424,-34.66203],[-58.397135,-34.662004],[-58.397549,-34.661812],[-58.397926,-34.661227],[-58.399197,-34.660901],[-58.39981,-34.660911],[-58.400729,-34.660503],[-58.401054,-34.659994],[-58.402749,-34.655877],[-58.404321,-34.651109],[-58.405049,-34.649802],[-58.404558,-34.64942],[-58.40275,-34.647064],[-58.401528,-34.646862],[-58.400606,-34.646557],[-58.400336,-34.646363],[-58.400496,-34.645922],[-58.391404,-34.64209],[-58.391475,-34.640831],[-58.389886,-34.64021],[-58.390357,-34.634129],[-58.383396,-34.632225],[-58.381337,-34.630849],[-58.381255,-34.633074],[-58.380148,-34.633036],[-58.380097,-34.632636],[-58.379515,-34.632216],[-58.378626,-34.630503],[-58.379049,-34.629338],[-58.377724,-34.628477],[-58.374566,-34.626804],[-58.370969,-34.626651],[-58.370663,-34.629498]]]}},{"type":"Feature","properties":{"etiqueta":"Belgrano"},"geometry":{"type":"Polygon","coordinates":[[[-58.451671,-34.535645],[-58.453132,-34.535805],[-58.454072,-34.53654],[-58.45478,-34.537309],[-58.45463,-34.53812],[-58.454086,-34.538791],[-58.452789,-34.53943],[-58.45217,-34.539564],[-58.451911,-34.539204],[-58.451932,-34.538992],[-58.451195,-34.538149],[-58.450463,-34.537813],[-58.44988,-34.537362],[-58.450032,-34.536121],[-58.449067,-34.53556],[-58.448902,-34.535578],[-58.4488,-34.535817],[-58.449395,-34.536322],[-58.448568,-34.537401],[-58.447971,-34.536992],[-58.447949,-34.536766],[-58.447635,-34.536499],[-58.446384,-34.53601],[-58.44537,-34.536024],[-58.443664,-34.536335],[-58.443864,-34.536145],[-58.442817,-34.53676],[-58.442289,-34.537301],[-58.44229,-34.537033],[-58.441765,-34.537905],[-58.441562,-34.537871],[-58.441584,-34.537626],[-58.441327,-34.538576],[-58.441121,-34.538583],[-58.441078,-34.53834],[-58.441099,-34.539143],[-58.440837,-34.539151],[-58.440888,-34.540209],[-58.440785,-34.540305],[-58.440321,-34.540209],[-58.440257,-34.539209],[-58.440215,-34.539839],[-58.439237,-34.540136],[-58.438199,-34.539949],[-58.437402,-34.540001],[-58.437639,-34.539852],[-58.43756,-34.539802],[-58.43735,-34.540008],[-58.436392,-34.540285],[-58.435889,-34.540612],[-58.435258,-34.541257],[-58.434944,-34.541909],[-58.434203,-34.541866],[-58.434206,-34.542026],[-58.434921,-34.542002],[-58.434624,-34.542582],[-58.431877,-34.5442],[-58.431297,-34.544846],[-58.4305,-34.546374],[-58.430049,-34.546877],[-58.429496,-34.546658],[-58.429931,-34.546969],[-58.429732,-34.547563],[-58.430042,-34.548041],[-58.429632,-34.548631],[-58.42807,-34.548088],[-58.42706,-34.54804],[-58.425778,-34.548733],[-58.425708,-34.548556],[-58.425936,-34.548404],[-58.425714,-34.548514],[-58.425731,-34.548722],[-58.425275,-34.548972],[-58.425149,-34.54892],[-58.425212,-34.549134],[-58.424953,-34.549093],[-58.424742,-34.54937],[-58.425127,-34.549332],[-58.425434,-34.549702],[-58.425731,-34.550322],[-58.425709,-34.550608],[-58.426068,-34.550886],[-58.426695,-34.552054],[-58.429402,-34.550956],[-58.430987,-34.551125],[-58.434426,-34.553056],[-58.434657,-34.5536],[-58.434114,-34.553964],[-58.435985,-34.554866],[-58.437702,-34.556153],[-58.440162,-34.55711],[-58.441061,-34.557903],[-58.441388,-34.558822],[-58.440961,-34.55992],[-58.440331,-34.560562],[-58.439244,-34.561292],[-58.437983,-34.561763],[-58.436553,-34.561935],[-58.434961,-34.561798],[-58.434861,-34.562095],[-58.435405,-34.562543],[-58.438436,-34.562482],[-58.441165,-34.56214],[-58.442538,-34.563695],[-58.442625,-34.563632],[-58.447857,-34.566719],[-58.449047,-34.56786],[-58.45229,-34.566114],[-58.457477,-34.569115],[-58.45763,-34.569004],[-58.457712,-34.569532],[-58.463357,-34.575014],[-58.467366,-34.572502],[-58.468083,-34.572915],[-58.47337,-34.566668],[-58.470651,-34.565011],[-58.466492,-34.562196],[-58.467686,-34.561694],[-58.467039,-34.561321],[-58.469186,-34.558935],[-58.453009,-34.55051],[-58.45416,-34.549411],[-58.454123,-34.548991],[-58.449277,-34.542659],[-58.451709,-34.541326],[-58.454749,-34.540333],[-58.458286,-34.538604],[-58.459445,-34.537806],[-58.458718,-34.537217],[-58.45856,-34.537326],[-58.456265,-34.536338],[-58.453865,-34.535045],[-58.452112,-34.532072],[-58.451826,-34.531745],[-58.451596,-34.531689],[-58.451056,-34.53187],[-58.450794,-34.532162],[-58.450679,-34.532938],[-58.450142,-34.534124],[-58.44996,-34.535038],[-58.450136,-34.535372],[-58.450569,-34.535617],[-58.451671,-34.535645]]]}},{"type":"Feature","properties":{"etiqueta":"La Boca"},"geometry":{"type":"Polygon","coordinates":[[[-58.351469,-34.619364],[-58.350873,-34.619475],[-58.350777,-34.619676],[-58.350688,-34.619558],[-58.349578,-34.619795],[-58.349073,-34.619648],[-58.348321,-34.619058],[-58.347854,-34.61897],[-58.347295,-34.61894],[-58.346569,-34.619107],[-58.345975,-34.618859],[-58.345203,-34.61882],[-58.344601,-34.619003],[-58.344682,-34.619632],[-58.345198,-34.619836],[-58.345452,-34.619877],[-58.346339,-34.61921],[-58.346568,-34.619282],[-58.347157,-34.619994],[-58.346972,-34.620993],[-58.346459,-34.621624],[-58.346518,-34.621995],[-58.345938,-34.62296],[-58.345982,-34.622312],[-58.345873,-34.62228],[-58.346069,-34.622272],[-58.346098,-34.622013],[-58.345812,-34.621882],[-58.345756,-34.622115],[-58.345485,-34.621527],[-58.345041,-34.621338],[-58.34471,-34.621345],[-58.344342,-34.621473],[-58.344063,-34.621763],[-58.344351,-34.620525],[-58.343789,-34.61883],[-58.34205,-34.618496],[-58.340395,-34.61869],[-58.339837,-34.61849],[-58.338593,-34.618643],[-58.33807,-34.618965],[-58.337519,-34.620014],[-58.337418,-34.620921],[-58.336928,-34.621819],[-58.336979,-34.6222],[-58.337217,-34.622529],[-58.337962,-34.622813],[-58.339525,-34.622589],[-58.341078,-34.622624],[-58.341904,-34.622827],[-58.342016,-34.622716],[-58.341921,-34.622357],[-58.342136,-34.622247],[-58.343038,-34.622714],[-58.342378,-34.623378],[-58.34189,-34.623039],[-58.340688,-34.623028],[-58.340053,-34.623241],[-58.338241,-34.624703],[-58.337028,-34.62489],[-58.335168,-34.626429],[-58.335159,-34.6271],[-58.336262,-34.628028],[-58.336204,-34.628183],[-58.336383,-34.628219],[-58.336439,-34.628069],[-58.336985,-34.628222],[-58.336926,-34.628378],[-58.338165,-34.628716],[-58.338224,-34.62856],[-58.338797,-34.628724],[-58.338734,-34.628882],[-58.338884,-34.628924],[-58.338952,-34.628759],[-58.339284,-34.628897],[-58.339125,-34.628793],[-58.339451,-34.628615],[-58.339754,-34.627834],[-58.340268,-34.627973],[-58.340556,-34.627737],[-58.340669,-34.627834],[-58.340785,-34.627721],[-58.340676,-34.627628],[-58.341074,-34.627303],[-58.341188,-34.627394],[-58.341307,-34.627286],[-58.341204,-34.627201],[-58.341602,-34.62687],[-58.341771,-34.626912],[-58.341735,-34.62677],[-58.342129,-34.626436],[-58.342221,-34.626511],[-58.342357,-34.626419],[-58.342258,-34.62633],[-58.342451,-34.626174],[-58.34274,-34.626202],[-58.342745,-34.626318],[-58.343333,-34.626269],[-58.343446,-34.6264],[-58.343501,-34.626291],[-58.344278,-34.626379],[-58.344385,-34.626455],[-58.343826,-34.626902],[-58.343717,-34.626817],[-58.343581,-34.626931],[-58.343679,-34.627016],[-58.343331,-34.627311],[-58.343217,-34.627218],[-58.343087,-34.627316],[-58.343209,-34.62742],[-58.342826,-34.627736],[-58.342724,-34.627652],[-58.342599,-34.62775],[-58.342699,-34.627838],[-58.342323,-34.628142],[-58.342209,-34.628045],[-58.34209,-34.628151],[-58.342201,-34.628247],[-58.341829,-34.628554],[-58.34161,-34.628546],[-58.341691,-34.628665],[-58.341406,-34.628898],[-58.341564,-34.629084],[-58.342386,-34.629304],[-58.342514,-34.62946],[-58.34255,-34.629355],[-58.342852,-34.629435],[-58.343189,-34.629143],[-58.343326,-34.629225],[-58.34332,-34.629046],[-58.343916,-34.628717],[-58.343824,-34.628639],[-58.344206,-34.628326],[-58.344408,-34.628353],[-58.344314,-34.628219],[-58.344582,-34.628003],[-58.345378,-34.628669],[-58.347055,-34.627286],[-58.348764,-34.628689],[-58.348432,-34.628792],[-58.348441,-34.628953],[-58.34878,-34.628924],[-58.34879,-34.629088],[-58.34869,-34.629351],[-58.348485,-34.629396],[-58.348445,-34.629863],[-58.347967,-34.629942],[-58.347911,-34.630135],[-58.348271,-34.630092],[-58.348315,-34.630278],[-58.34814,-34.630423],[-58.347932,-34.631158],[-58.347693,-34.630929],[-58.347766,-34.631193],[-58.347575,-34.631398],[-58.346855,-34.631512],[-58.34674,-34.631428],[-58.346152,-34.631543],[-58.346103,-34.631664],[-58.347588,-34.632076],[-58.347701,-34.632237],[-58.349069,-34.632552],[-58.35015,-34.632326],[-58.351144,-34.63136],[-58.352076,-34.629238],[-58.352388,-34.629015],[-58.352994,-34.629166],[-58.353973,-34.628093],[-58.3603,-34.623949],[-58.360525,-34.623892],[-58.360864,-34.624243],[-58.361773,-34.623643],[-58.361919,-34.623796],[-58.361024,-34.624398],[-58.361268,-34.624689],[-58.355847,-34.628192],[-58.354893,-34.629008],[-58.353793,-34.630675],[-58.352766,-34.633567],[-58.353512,-34.635716],[-58.354144,-34.636522],[-58.356049,-34.637542],[-58.356969,-34.638573],[-58.358032,-34.639206],[-58.360359,-34.639193],[-58.361128,-34.639399],[-58.361444,-34.639871],[-58.360908,-34.640727],[-58.358486,-34.641559],[-58.358131,-34.641873],[-58.357328,-34.644047],[-58.357604,-34.644984],[-58.358752,-34.645385],[-58.359819,-34.645975],[-58.361827,-34.647842],[-58.362399,-34.648149],[-58.363923,-34.648101],[-58.364339,-34.648228],[-58.364976,-34.648793],[-58.367654,-34.650142],[-58.370235,-34.633757],[-58.370663,-34.629498],[-58.36945,-34.628327],[-58.36795,-34.627147],[-58.367977,-34.6252],[-58.363201,-34.62514],[-58.356016,-34.617611],[-58.355146,-34.619555],[-58.354255,-34.619468],[-58.354079,-34.619706],[-58.353523,-34.619409],[-58.352699,-34.619775],[-58.352571,-34.619543],[-58.351923,-34.619624],[-58.351469,-34.619364]]]}},{"type":"Feature","properties":{"etiqueta":"Boedo"},"geometry":{"type":"Polygon","coordinates":[[[-58.411783,-34.63036],[-58.411524,-34.632861],[-58.410492,-34.635242],[-58.410515,-34.635714],[-58.411264,-34.638104],[-58.423495,-34.640205],[-58.425806,-34.631289],[-58.427798,-34.622079],[-58.423524,-34.621491],[-58.412547,-34.620647],[-58.41244,-34.621888],[-58.412045,-34.622979],[-58.412337,-34.623037],[-58.412069,-34.625143],[-58.411783,-34.63036]]]}},{"type":"Feature","properties":{"etiqueta":"Caballito"},"geometry":{"type":"Polygon","coordinates":[[[-58.427798,-34.622079],[-58.426759,-34.627003],[-58.451578,-34.630644],[-58.454577,-34.624485],[-58.459035,-34.614739],[-58.462706,-34.607378],[-58.458476,-34.604497],[-58.44625,-34.607621],[-58.445134,-34.60718],[-58.439204,-34.605588],[-58.433337,-34.602679],[-58.430672,-34.605946],[-58.430031,-34.615454],[-58.429255,-34.615111],[-58.427798,-34.622079]]]}},{"type":"Feature","properties":{"etiqueta":"Chacarita"},"geometry":{"type":"Polygon","coordinates":[[[-58.460227,-34.578301],[-58.457746,-34.578444],[-58.455401,-34.579076],[-58.45102,-34.580481],[-58.444402,-34.583197],[-58.444788,-34.584519],[-58.438538,-34.588673],[-58.450603,-34.594404],[-58.455486,-34.59784],[-58.459277,-34.596683],[-58.463769,-34.596433],[-58.465622,-34.59671],[-58.464383,-34.592557],[-58.465881,-34.591214],[-58.46683,-34.590599],[-58.461872,-34.586048],[-58.460381,-34.585533],[-58.460537,-34.58495],[-58.46053,-34.5783],[-58.460227,-34.578301]]]}},{"type":"Feature","properties":{"etiqueta":"Coghlan"},"geometry":{"type":"Polygon","coordinates":[[[-58.469186,-34.558935],[-58.467039,-34.561321],[-58.467686,-34.561694],[-58.466492,-34.562196],[-58.47299,-34.566442],[-58.474596,-34.566817],[-58.475125,-34.566225],[-58.476191,-34.566855],[-58.479313,-34.564072],[-58.479056,-34.563938],[-58.480375,-34.563323],[-58.480227,-34.563242],[-58.481159,-34.562506],[-58.483561,-34.559111],[-58.473588,-34.55354],[-58.470874,-34.557037],[-58.469186,-34.558935]]]}},{"type":"Feature","properties":{"etiqueta":"Colegiales"},"geometry":{"type":"Polygon","coordinates":[[[-58.449047,-34.56786],[-58.440747,-34.572112],[-58.443974,-34.57537],[-58.441817,-34.576824],[-58.440891,-34.577802],[-58.439942,-34.578553],[-58.443434,-34.581803],[-58.444451,-34.583176],[-58.45102,-34.580481],[-58.455401,-34.579076],[-58.457746,-34.578444],[-58.460227,-34.578301],[-58.463357,-34.575014],[-58.457712,-34.569532],[-58.45763,-34.569004],[-58.457477,-34.569115],[-58.45229,-34.566114],[-58.449047,-34.56786]]]}},{"type":"Feature","properties":{"etiqueta":"Constitución"},"geometry":{"type":"Polygon","coordinates":[[[-58.375578,-34.627306],[-58.379049,-34.629338],[-58.378626,-34.630503],[-58.379515,-34.632216],[-58.380097,-34.632636],[-58.380148,-34.633036],[-58.381255,-34.633074],[-58.381337,-34.630849],[-58.383396,-34.632225],[-58.390357,-34.634129],[-58.391174,-34.627257],[-58.391701,-34.618164],[-58.377363,-34.617457],[-58.37707,-34.623605],[-58.376756,-34.625119],[-58.375578,-34.627306]]]}},{"type":"Feature","properties":{"etiqueta":"Flores"},"geometry":{"type":"Polygon","coordinates":[[[-58.451578,-34.630644],[-58.45438,-34.631505],[-58.451443,-34.637471],[-58.449561,-34.638695],[-58.444246,-34.642811],[-58.44308,-34.641782],[-58.442391,-34.642726],[-58.437425,-34.647357],[-58.434926,-34.646241],[-58.430432,-34.649878],[-58.436024,-34.654375],[-58.438008,-34.655807],[-58.442954,-34.651902],[-58.443326,-34.651194],[-58.444622,-34.650952],[-58.44883,-34.651179],[-58.451976,-34.651083],[-58.454638,-34.650827],[-58.454862,-34.651995],[-58.455063,-34.652303],[-58.460403,-34.65681],[-58.465428,-34.652901],[-58.467035,-34.651472],[-58.463887,-34.647558],[-58.463,-34.646174],[-58.465087,-34.644716],[-58.469243,-34.641401],[-58.477808,-34.622389],[-58.468636,-34.617567],[-58.46454,-34.615793],[-58.45945,-34.613891],[-58.454577,-34.624485],[-58.451578,-34.630644]]]}},{"type":"Feature","properties":{"etiqueta":"Floresta"},"geometry":{"type":"Polygon","coordinates":[[[-58.477808,-34.622389],[-58.471304,-34.63666],[-58.473493,-34.637313],[-58.476073,-34.638939],[-58.498201,-34.621376],[-58.492637,-34.616733],[-58.482743,-34.624635],[-58.479377,-34.623197],[-58.477808,-34.622389]]]}},{"type":"Feature","properties":{"etiqueta":"Liniers"},"geometry":{"type":"Polygon","coordinates":[[[-58.51067,-34.634822],[-58.507651,-34.635896],[-58.506819,-34.635817],[-58.505672,-34.636723],[-58.510509,-34.637376],[-58.509822,-34.640013],[-58.502299,-34.645823],[-58.524921,-34.656382],[-58.525772,-34.656896],[-58.529207,-34.654303],[-58.530358,-34.6348],[-58.528205,-34.634847],[-58.524299,-34.634476],[-58.522336,-34.634018],[-58.520687,-34.633826],[-58.520747,-34.633224],[-58.52024,-34.632802],[-58.520173,-34.632917],[-58.519746,-34.632989],[-58.517089,-34.633019],[-58.514863,-34.633208],[-58.513322,-34.63367],[-58.51067,-34.634822]]]}},{"type":"Feature","properties":{"etiqueta":"Mataderos"},"geometry":{"type":"Polygon","coordinates":[[[-58.495302,-34.644852],[-58.478818,-34.657849],[-58.485945,-34.662452],[-58.488952,-34.663352],[-58.495873,-34.6702],[-58.49704,-34.671184],[-58.499127,-34.67264],[-58.502525,-34.674512],[-58.525772,-34.656896],[-58.524921,-34.656382],[-58.497137,-34.643414],[-58.495302,-34.644852]]]}},{"type":"Feature","properties":{"etiqueta":"Monserrat"},"geometry":{"type":"Polygon","coordinates":[[[-58.367732,-34.606906],[-58.36674,-34.61563],[-58.371719,-34.61603],[-58.37743,-34.616298],[-58.377363,-34.617457],[-58.391701,-34.618164],[-58.391673,-34.615185],[-58.391956,-34.609297],[-58.381797,-34.608447],[-58.371556,-34.607889],[-58.371093,-34.607791],[-58.370309,-34.607196],[-58.370196,-34.606579],[-58.369444,-34.606507],[-58.369225,-34.606742],[-58.368154,-34.606969],[-58.367732,-34.606906]]]}},{"type":"Feature","properties":{"etiqueta":"Monte Castro"},"geometry":{"type":"Polygon","coordinates":[[[-58.494786,-34.615021],[-58.492637,-34.616733],[-58.498201,-34.621376],[-58.503492,-34.624037],[-58.507293,-34.627599],[-58.511651,-34.624284],[-58.516381,-34.628455],[-58.521636,-34.62441],[-58.513046,-34.616737],[-58.500192,-34.609131],[-58.495573,-34.614396],[-58.494786,-34.615021]]]}},{"type":"Feature","properties":{"etiqueta":"Nueva Pompeya"},"geometry":{"type":"Polygon","coordinates":[[[-58.40275,-34.647064],[-58.404558,-34.64942],[-58.405049,-34.649802],[-58.404171,-34.651483],[-58.402749,-34.655877],[-58.401054,-34.659994],[-58.401878,-34.659608],[-58.403083,-34.65935],[-58.405429,-34.659678],[-58.406405,-34.660008],[-58.407232,-34.660005],[-58.407649,-34.65983],[-58.408369,-34.659832],[-58.409249,-34.659475],[-58.410132,-34.658891],[-58.410463,-34.658875],[-58.411192,-34.658567],[-58.412363,-34.658386],[-58.413252,-34.658419],[-58.414558,-34.658612],[-58.416892,-34.659378],[-58.417708,-34.659603],[-58.417902,-34.659507],[-58.418101,-34.659686],[-58.420027,-34.660171],[-58.42185,-34.660861],[-58.424044,-34.662052],[-58.426748,-34.658678],[-58.434436,-34.653117],[-58.430432,-34.649878],[-58.434926,-34.646241],[-58.432621,-34.64522],[-58.43211,-34.645168],[-58.432347,-34.641746],[-58.430926,-34.641449],[-58.411264,-34.638104],[-58.41344,-34.643459],[-58.412104,-34.648587],[-58.40275,-34.647064]]]}},{"type":"Feature","properties":{"etiqueta":"Núñez"},"geometry":{"type":"Polygon","coordinates":[[[-58.454624,-34.528604],[-58.45405,-34.529305],[-58.451951,-34.530021],[-58.451692,-34.530353],[-58.45172,-34.530631],[-58.454966,-34.535276],[-58.458847,-34.537128],[-58.458718,-34.537217],[-58.459445,-34.537806],[-58.458286,-34.538604],[-58.454749,-34.540333],[-58.451709,-34.541326],[-58.449277,-34.542659],[-58.454123,-34.548991],[-58.45416,-34.549411],[-58.453009,-34.55051],[-58.469186,-34.558935],[-58.470874,-34.557037],[-58.474437,-34.552427],[-58.468191,-34.548947],[-58.475955,-34.538637],[-58.463798,-34.533268],[-58.461073,-34.530138],[-58.460498,-34.529085],[-58.459507,-34.527837],[-58.459299,-34.527206],[-58.458625,-34.52671],[-58.457619,-34.526498],[-58.456719,-34.526748],[-58.455559,-34.527451],[-58.454624,-34.528604]]]}},{"type":"Feature","properties":{"etiqueta":"Palermo"},"geometry":{"type":"Polygon","coordinates":[[[-58.40002,-34.568827],[-58.400191,-34.569018],[-58.399926,-34.569187],[-58.397412,-34.56663],[-58.397155,-34.566617],[-58.396542,-34.56688],[-58.395752,-34.567792],[-58.395248,-34.568624],[-58.395212,-34.568962],[-58.39492,-34.569258],[-58.394736,-34.569158],[-58.394566,-34.569235],[-58.392844,-34.572239],[-58.394825,-34.572315],[-58.39521,-34.572196],[-58.400131,-34.569355],[-58.399702,-34.570023],[-58.39972,-34.570813],[-58.402651,-34.574146],[-58.401149,-34.575742],[-58.398586,-34.577177],[-58.396564,-34.578512],[-58.400548,-34.584477],[-58.401947,-34.583432],[-58.406176,-34.583465],[-58.410085,-34.589062],[-58.414397,-34.594059],[-58.416004,-34.59786],[-58.42337,-34.597753],[-58.426953,-34.596216],[-58.429352,-34.594751],[-58.444788,-34.584519],[-58.444451,-34.583176],[-58.443434,-34.581803],[-58.439942,-34.578553],[-58.440891,-34.577802],[-58.441817,-34.576824],[-58.443974,-34.57537],[-58.440747,-34.572112],[-58.449047,-34.56786],[-58.447857,-34.566719],[-58.442625,-34.563632],[-58.442538,-34.563695],[-58.441165,-34.56214],[-58.438436,-34.562482],[-58.435405,-34.562543],[-58.434861,-34.562095],[-58.434961,-34.561798],[-58.436553,-34.561935],[-58.437983,-34.561763],[-58.439244,-34.561292],[-58.440331,-34.560562],[-58.440961,-34.55992],[-58.441388,-34.558822],[-58.441061,-34.557903],[-58.440162,-34.55711],[-58.437702,-34.556153],[-58.435985,-34.554866],[-58.434114,-34.553964],[-58.434657,-34.5536],[-58.434426,-34.553056],[-58.430987,-34.551125],[-58.429402,-34.550956],[-58.426762,-34.55203],[-58.426501,-34.55181],[-58.425668,-34.551972],[-58.424323,-34.549365],[-58.424723,-34.549022],[-58.424181,-34.549275],[-58.425705,-34.552164],[-58.422887,-34.553024],[-58.422833,-34.552876],[-58.422318,-34.552989],[-58.422379,-34.553137],[-58.420404,-34.553617],[-58.416078,-34.554329],[-58.415959,-34.554219],[-58.415872,-34.554386],[-58.414182,-34.554886],[-58.414056,-34.554784],[-58.414051,-34.554931],[-58.41118,-34.556253],[-58.410942,-34.556208],[-58.410974,-34.55636],[-58.41017,-34.556735],[-58.409824,-34.556574],[-58.409567,-34.556605],[-58.40939,-34.556856],[-58.409526,-34.557218],[-58.409253,-34.55812],[-58.409066,-34.55816],[-58.409226,-34.558253],[-58.40921,-34.558476],[-58.408783,-34.558736],[-58.404824,-34.562667],[-58.404757,-34.562928],[-58.404432,-34.562827],[-58.403911,-34.563485],[-58.403401,-34.563079],[-58.403328,-34.56317],[-58.39879,-34.560753],[-58.398696,-34.56092],[-58.40329,-34.563218],[-58.403223,-34.563307],[-58.403564,-34.563493],[-58.403636,-34.563403],[-58.403936,-34.563566],[-58.403381,-34.56388],[-58.402605,-34.563961],[-58.402163,-34.563871],[-58.401598,-34.563482],[-58.401117,-34.563338],[-58.400876,-34.563558],[-58.401106,-34.564041],[-58.400714,-34.564306],[-58.399813,-34.56372],[-58.399211,-34.563665],[-58.398503,-34.563983],[-58.39684,-34.565207],[-58.396751,-34.565561],[-58.396947,-34.565919],[-58.397503,-34.566241],[-58.40002,-34.568827]]]}},{"type":"Feature","properties":{"etiqueta":"Parque Avellaneda"},"geometry":{"type":"Polygon","coordinates":[[[-58.460403,-34.65681],[-58.461582,-34.657883],[-58.464431,-34.660053],[-58.467656,-34.65752],[-58.469557,-34.659109],[-58.470571,-34.658431],[-58.472516,-34.662777],[-58.495302,-34.644852],[-58.478546,-34.636999],[-58.476073,-34.638939],[-58.473493,-34.637313],[-58.471304,-34.63666],[-58.469243,-34.641401],[-58.465087,-34.644716],[-58.463,-34.646174],[-58.463887,-34.647558],[-58.467035,-34.651472],[-58.465428,-34.652901],[-58.460403,-34.65681]]]}},{"type":"Feature","properties":{"etiqueta":"Parque Chacabuco"},"geometry":{"type":"Polygon","coordinates":[[[-58.423495,-34.640205],[-58.432347,-34.641746],[-58.43211,-34.645168],[-58.432621,-34.64522],[-58.437425,-34.647357],[-58.442391,-34.642726],[-58.44308,-34.641782],[-58.444246,-34.642811],[-58.449561,-34.638695],[-58.451443,-34.637471],[-58.45438,-34.631505],[-58.451578,-34.630644],[-58.426759,-34.627003],[-58.425806,-34.631289],[-58.423495,-34.640205]]]}},{"type":"Feature","properties":{"etiqueta":"Parque Chas"},"geometry":{"type":"Polygon","coordinates":[[[-58.470817,-34.587451],[-58.475725,-34.591313],[-58.47589,-34.591729],[-58.481289,-34.590305],[-58.484711,-34.589125],[-58.488794,-34.584824],[-58.478989,-34.579131],[-58.475425,-34.579964],[-58.473996,-34.581633],[-58.473572,-34.581771],[-58.473649,-34.582067],[-58.470817,-34.587451]]]}},{"type":"Feature","properties":{"etiqueta":"Parque Patricios"},"geometry":{"type":"Polygon","coordinates":[[[-58.390357,-34.634129],[-58.389886,-34.64021],[-58.391475,-34.640831],[-58.391404,-34.64209],[-58.400496,-34.645922],[-58.400336,-34.646363],[-58.401088,-34.646735],[-58.412104,-34.648587],[-58.41344,-34.643459],[-58.41137,-34.63844],[-58.410515,-34.635714],[-58.410492,-34.635242],[-58.411524,-34.632861],[-58.411783,-34.63036],[-58.408368,-34.62952],[-58.398598,-34.62841],[-58.392164,-34.627268],[-58.391174,-34.627257],[-58.390357,-34.634129]]]}},{"type":"Feature","properties":{"etiqueta":"La Paternal"},"geometry":{"type":"Polygon","coordinates":[[[-58.46683,-34.590599],[-58.465881,-34.591214],[-58.464383,-34.592557],[-58.465622,-34.59671],[-58.463769,-34.596433],[-58.459277,-34.596683],[-58.456238,-34.597595],[-58.458165,-34.603834],[-58.458937,-34.604379],[-58.468914,-34.601866],[-58.471611,-34.603826],[-58.474018,-34.605316],[-58.4775,-34.600831],[-58.476393,-34.600205],[-58.478832,-34.599676],[-58.475725,-34.591313],[-58.470817,-34.587451],[-58.46683,-34.590599]]]}},{"type":"Feature","properties":{"etiqueta":"Puerto Madero"},"geometry":{"type":"Polygon","coordinates":[[[-58.351386,-34.619357],[-58.351923,-34.619624],[-58.352571,-34.619543],[-58.352699,-34.619775],[-58.353523,-34.619409],[-58.354079,-34.619706],[-58.354255,-34.619468],[-58.355146,-34.619555],[-58.356016,-34.617611],[-58.363201,-34.62514],[-58.363461,-34.625126],[-58.365506,-34.623925],[-58.365791,-34.623992],[-58.368395,-34.601034],[-58.369518,-34.598326],[-58.368122,-34.598442],[-58.367365,-34.598265],[-58.366612,-34.59833],[-58.363239,-34.598066],[-58.363538,-34.597192],[-58.363452,-34.59713],[-58.359257,-34.595249],[-58.356489,-34.595035],[-58.355937,-34.595126],[-58.355442,-34.595316],[-58.354915,-34.595798],[-58.353442,-34.596697],[-58.352388,-34.597943],[-58.350497,-34.599296],[-58.349737,-34.600114],[-58.348004,-34.601288],[-58.346824,-34.602339],[-58.346481,-34.604282],[-58.346322,-34.604773],[-58.346084,-34.604998],[-58.346115,-34.606013],[-58.345881,-34.606709],[-58.345626,-34.607014],[-58.344004,-34.607948],[-58.341471,-34.609875],[-58.340867,-34.610668],[-58.339983,-34.613875],[-58.339877,-34.6161],[-58.340855,-34.616944],[-58.342636,-34.617084],[-58.344862,-34.617732],[-58.345532,-34.617508],[-58.346185,-34.617554],[-58.347179,-34.617361],[-58.348299,-34.616932],[-58.349173,-34.616986],[-58.350166,-34.617507],[-58.350228,-34.618211],[-58.3498,-34.61822],[-58.350107,-34.618485],[-58.349974,-34.618722],[-58.350255,-34.618783],[-58.350536,-34.618531],[-58.350728,-34.618556],[-58.350376,-34.61894],[-58.350683,-34.619175],[-58.351224,-34.619229],[-58.351386,-34.619357]],[[-58.364484,-34.612404],[-58.36454,-34.612098],[-58.364749,-34.612116],[-58.364741,-34.612424],[-58.365476,-34.612534],[-58.364897,-34.61757],[-58.364164,-34.617554],[-58.3641,-34.617862],[-58.363888,-34.617847],[-58.363886,-34.61753],[-58.363164,-34.617438],[-58.363738,-34.612384],[-58.364484,-34.612404]],[[-58.365258,-34.605487],[-58.365326,-34.605188],[-58.365549,-34.605204],[-58.365551,-34.605513],[-58.366266,-34.605606],[-58.365565,-34.611737],[-58.364823,-34.611722],[-58.364765,-34.61202],[-58.364549,-34.612003],[-58.364554,-34.611699],[-58.363822,-34.611599],[-58.364532,-34.605467],[-58.365258,-34.605487]],[[-58.365947,-34.599165],[-58.366035,-34.598738],[-58.366307,-34.598738],[-58.366282,-34.599191],[-58.366986,-34.599306],[-58.366345,-34.604886],[-58.365624,-34.604861],[-58.365556,-34.605111],[-58.365337,-34.605093],[-58.365322,-34.604826],[-58.364615,-34.604733],[-58.365252,-34.599164],[-58.365947,-34.599165]],[[-58.36381,-34.618239],[-58.363876,-34.617941],[-58.364088,-34.617957],[-58.364095,-34.618265],[-58.364808,-34.618347],[-58.364261,-34.623413],[-58.362674,-34.623314],[-58.362049,-34.62372],[-58.361916,-34.623586],[-58.362536,-34.623166],[-58.363078,-34.618218],[-58.36381,-34.618239]]]}},{"type":"Feature","properties":{"etiqueta":"Recoleta"},"geometry":{"type":"Polygon","coordinates":[[[-58.375557,-34.577448],[-58.376716,-34.577551],[-58.373977,-34.579108],[-58.375127,-34.580525],[-58.376165,-34.579956],[-58.379841,-34.580167],[-58.383235,-34.57832],[-58.383926,-34.578197],[-58.385291,-34.578252],[-58.386585,-34.57812],[-58.389869,-34.578207],[-58.391649,-34.580836],[-58.388397,-34.58249],[-58.386968,-34.583557],[-58.38533,-34.585389],[-58.384504,-34.586966],[-58.383691,-34.587506],[-58.386922,-34.59078],[-58.387955,-34.591653],[-58.387571,-34.592836],[-58.387275,-34.594752],[-58.386868,-34.599298],[-58.392935,-34.599642],[-58.398727,-34.599765],[-58.402012,-34.599375],[-58.404511,-34.598041],[-58.410298,-34.598098],[-58.416004,-34.59786],[-58.414397,-34.594059],[-58.410085,-34.589062],[-58.406176,-34.583465],[-58.401947,-34.583432],[-58.400548,-34.584477],[-58.396564,-34.578512],[-58.398586,-34.577177],[-58.401149,-34.575742],[-58.402651,-34.574146],[-58.39972,-34.570813],[-58.399702,-34.570023],[-58.400131,-34.569355],[-58.39521,-34.572196],[-58.394825,-34.572315],[-58.392844,-34.572239],[-58.392989,-34.571982],[-58.387945,-34.574877],[-58.386648,-34.573231],[-58.391266,-34.570611],[-58.39105,-34.570077],[-58.39032,-34.569342],[-58.384286,-34.568899],[-58.38369,-34.568512],[-58.383231,-34.568393],[-58.381085,-34.568514],[-58.380748,-34.569397],[-58.380712,-34.570118],[-58.380358,-34.570103],[-58.38041,-34.568566],[-58.380103,-34.568225],[-58.368169,-34.567237],[-58.368083,-34.567317],[-58.379785,-34.56831],[-58.380225,-34.568697],[-58.380234,-34.569846],[-58.380008,-34.569972],[-58.38003,-34.570373],[-58.378776,-34.570355],[-58.376562,-34.571574],[-58.376164,-34.57166],[-58.361762,-34.570647],[-58.359857,-34.571649],[-58.359917,-34.571816],[-58.361646,-34.570839],[-58.362104,-34.570745],[-58.376149,-34.571806],[-58.371223,-34.574745],[-58.371175,-34.574903],[-58.378685,-34.570481],[-58.379145,-34.570384],[-58.380361,-34.570479],[-58.380331,-34.570815],[-58.380507,-34.571044],[-58.378309,-34.57231],[-58.378283,-34.572747],[-58.383552,-34.57319],[-58.383577,-34.573425],[-58.381817,-34.574416],[-58.37552,-34.573911],[-58.370745,-34.576627],[-58.370742,-34.577068],[-58.375557,-34.577448]]]}},{"type":"Feature","properties":{"etiqueta":"Retiro"},"geometry":{"type":"Polygon","coordinates":[[[-58.356489,-34.595035],[-58.359257,-34.595249],[-58.363452,-34.59713],[-58.363538,-34.597192],[-58.363239,-34.598066],[-58.366612,-34.59833],[-58.367365,-34.598265],[-58.368122,-34.598442],[-58.369518,-34.598326],[-58.371171,-34.5984],[-58.378284,-34.598914],[-58.386868,-34.599298],[-58.387275,-34.594752],[-58.387571,-34.592836],[-58.387955,-34.591653],[-58.386922,-34.59078],[-58.383691,-34.587506],[-58.384504,-34.586966],[-58.38533,-34.585389],[-58.386968,-34.583557],[-58.388397,-34.58249],[-58.391649,-34.580836],[-58.389869,-34.578207],[-58.386585,-34.57812],[-58.383576,-34.578241],[-58.382862,-34.578454],[-58.379841,-34.580167],[-58.376165,-34.579956],[-58.375127,-34.580525],[-58.373977,-34.579108],[-58.376716,-34.577551],[-58.376046,-34.57749],[-58.376033,-34.577728],[-58.374289,-34.57871],[-58.367934,-34.578216],[-58.365321,-34.57971],[-58.365257,-34.580162],[-58.370585,-34.580589],[-58.370603,-34.580792],[-58.368975,-34.581734],[-58.361625,-34.581152],[-58.361418,-34.582969],[-58.36611,-34.58334],[-58.366149,-34.583564],[-58.364947,-34.584505],[-58.35992,-34.584123],[-58.359729,-34.585924],[-58.363649,-34.586246],[-58.363528,-34.587463],[-58.359608,-34.587189],[-58.359462,-34.588085],[-58.359802,-34.58834],[-58.36085,-34.588565],[-58.360746,-34.588941],[-58.360895,-34.588569],[-58.367997,-34.590013],[-58.367912,-34.590434],[-58.367491,-34.590657],[-58.366894,-34.59072],[-58.366525,-34.590976],[-58.364372,-34.59427],[-58.364642,-34.594495],[-58.364833,-34.594462],[-58.365903,-34.592834],[-58.366155,-34.592864],[-58.366989,-34.591508],[-58.367244,-34.5914],[-58.36728,-34.591552],[-58.366383,-34.592984],[-58.36693,-34.593204],[-58.367657,-34.591984],[-58.367843,-34.591941],[-58.367932,-34.592092],[-58.367157,-34.593314],[-58.369083,-34.594157],[-58.367914,-34.597479],[-58.366498,-34.597419],[-58.366377,-34.598227],[-58.366094,-34.598209],[-58.36616,-34.597389],[-58.363836,-34.597203],[-58.36441,-34.59551],[-58.364106,-34.595316],[-58.363872,-34.595421],[-58.363028,-34.595232],[-58.361483,-34.595133],[-58.361245,-34.59528],[-58.361512,-34.595172],[-58.363037,-34.595285],[-58.363848,-34.595486],[-58.363422,-34.596664],[-58.362487,-34.596506],[-58.360334,-34.595471],[-58.360378,-34.595082],[-58.361103,-34.595106],[-58.354149,-34.594669],[-58.350941,-34.595191],[-58.354117,-34.594707],[-58.356853,-34.594942],[-58.356489,-34.595035]]]}},{"type":"Feature","properties":{"etiqueta":"Saavedra"},"geometry":{"type":"Polygon","coordinates":[[[-58.473588,-34.55354],[-58.483409,-34.559038],[-58.490992,-34.562657],[-58.491931,-34.561308],[-58.508605,-34.569398],[-58.508818,-34.569515],[-58.50904,-34.570003],[-58.509875,-34.569271],[-58.500552,-34.549496],[-58.475955,-34.538637],[-58.468191,-34.548947],[-58.474437,-34.552427],[-58.473588,-34.55354]]]}},{"type":"Feature","properties":{"etiqueta":"San Cristóbal"},"geometry":{"type":"Polygon","coordinates":[[[-58.391174,-34.627257],[-58.392164,-34.627268],[-58.398598,-34.62841],[-58.408368,-34.62952],[-58.411783,-34.63036],[-58.412069,-34.625143],[-58.412337,-34.623037],[-58.412045,-34.622979],[-58.41244,-34.621888],[-58.412547,-34.620647],[-58.403517,-34.618845],[-58.391701,-34.618164],[-58.391174,-34.627257]]]}},{"type":"Feature","properties":{"etiqueta":"San Nicolás"},"geometry":{"type":"Polygon","coordinates":[[[-58.367732,-34.606906],[-58.368154,-34.606969],[-58.369225,-34.606742],[-58.369444,-34.606507],[-58.370196,-34.606579],[-58.370309,-34.607196],[-58.371093,-34.607791],[-58.371556,-34.607889],[-58.381797,-34.608447],[-58.391956,-34.609297],[-58.392392,-34.60316],[-58.392935,-34.599642],[-58.378284,-34.598914],[-58.369518,-34.598326],[-58.368395,-34.601034],[-58.367732,-34.606906]]]}},{"type":"Feature","properties":{"etiqueta":"San Telmo"},"geometry":{"type":"Polygon","coordinates":[[[-58.363461,-34.625126],[-58.367977,-34.6252],[-58.36795,-34.627147],[-58.36945,-34.628327],[-58.370663,-34.629498],[-58.370969,-34.626651],[-58.374566,-34.626804],[-58.375578,-34.627306],[-58.376756,-34.625119],[-58.37707,-34.623605],[-58.37743,-34.616298],[-58.371719,-34.61603],[-58.36674,-34.61563],[-58.365791,-34.623992],[-58.365506,-34.623925],[-58.363461,-34.625126]]]}},{"type":"Feature","properties":{"etiqueta":"Vélez Sársfield"},"geometry":{"type":"Polygon","coordinates":[[[-58.478546,-34.636999],[-58.487806,-34.641304],[-58.49332,-34.636968],[-58.493116,-34.636518],[-58.493799,-34.636651],[-58.499977,-34.631781],[-58.501042,-34.632213],[-58.507293,-34.627599],[-58.503492,-34.624037],[-58.498201,-34.621376],[-58.478546,-34.636999]]]}},{"type":"Feature","properties":{"etiqueta":"Versalles"},"geometry":{"type":"Polygon","coordinates":[[[-58.521636,-34.62441],[-58.508388,-34.634604],[-58.51067,-34.634822],[-58.513322,-34.63367],[-58.514863,-34.633208],[-58.517089,-34.633019],[-58.519746,-34.632989],[-58.520173,-34.632917],[-58.52024,-34.632802],[-58.520747,-34.633224],[-58.520687,-34.633826],[-58.522336,-34.634018],[-58.524299,-34.634476],[-58.528205,-34.634847],[-58.530358,-34.6348],[-58.530801,-34.627528],[-58.522831,-34.623491],[-58.521636,-34.62441]]]}},{"type":"Feature","properties":{"etiqueta":"Villa Crespo"},"geometry":{"type":"Polygon","coordinates":[[[-58.42337,-34.597753],[-58.426788,-34.597949],[-58.427776,-34.598334],[-58.429432,-34.599131],[-58.430278,-34.599887],[-58.432243,-34.602139],[-58.439204,-34.605588],[-58.445134,-34.60718],[-58.44625,-34.607621],[-58.458937,-34.604379],[-58.458165,-34.603834],[-58.456238,-34.597595],[-58.455486,-34.59784],[-58.450603,-34.594404],[-58.438538,-34.588673],[-58.430285,-34.594169],[-58.426953,-34.596216],[-58.42337,-34.597753]]]}},{"type":"Feature","properties":{"etiqueta":"Villa del Parque"},"geometry":{"type":"Polygon","coordinates":[[[-58.478832,-34.599676],[-58.476393,-34.600205],[-58.4775,-34.600831],[-58.474018,-34.605316],[-58.476366,-34.606755],[-58.477619,-34.607365],[-58.488655,-34.610141],[-58.492266,-34.612866],[-58.494786,-34.615021],[-58.495573,-34.614396],[-58.506167,-34.602384],[-58.497128,-34.596794],[-58.483457,-34.597764],[-58.478832,-34.599676]]]}},{"type":"Feature","properties":{"etiqueta":"Villa Devoto"},"geometry":{"type":"Polygon","coordinates":[[[-58.503472,-34.593959],[-58.503083,-34.594388],[-58.503544,-34.594456],[-58.497175,-34.596823],[-58.506167,-34.602384],[-58.500192,-34.609131],[-58.513046,-34.616737],[-58.516949,-34.62022],[-58.525059,-34.613968],[-58.529468,-34.610901],[-58.515536,-34.581274],[-58.51497,-34.581322],[-58.514516,-34.58175],[-58.503472,-34.593959]]]}},{"type":"Feature","properties":{"etiqueta":"Villa General Mitre"},"geometry":{"type":"Polygon","coordinates":[[[-58.458937,-34.604379],[-58.458476,-34.604497],[-58.462706,-34.607378],[-58.45945,-34.613891],[-58.46454,-34.615793],[-58.468636,-34.617567],[-58.471622,-34.61916],[-58.480411,-34.608132],[-58.477619,-34.607365],[-58.476366,-34.606755],[-58.471611,-34.603826],[-58.468914,-34.601866],[-58.458937,-34.604379]]]}},{"type":"Feature","properties":{"etiqueta":"Villa Lugano"},"geometry":{"type":"Polygon","coordinates":[[[-58.464431,-34.660053],[-58.468453,-34.66366],[-58.46924,-34.663881],[-58.469642,-34.663658],[-58.470195,-34.663613],[-58.470395,-34.663774],[-58.470367,-34.664443],[-58.46477,-34.668883],[-58.463649,-34.669159],[-58.463228,-34.669392],[-58.462259,-34.670622],[-58.459933,-34.672672],[-58.459548,-34.673538],[-58.459228,-34.673732],[-58.458518,-34.673858],[-58.457728,-34.674386],[-58.450643,-34.680042],[-58.455425,-34.684479],[-58.457775,-34.686458],[-58.459008,-34.687766],[-58.463397,-34.691795],[-58.475798,-34.682141],[-58.483355,-34.688958],[-58.502525,-34.674512],[-58.499127,-34.67264],[-58.49704,-34.671184],[-58.495873,-34.6702],[-58.488952,-34.663352],[-58.485945,-34.662452],[-58.478818,-34.657849],[-58.472516,-34.662777],[-58.470571,-34.658431],[-58.469557,-34.659109],[-58.467656,-34.65752],[-58.464431,-34.660053]]]}},{"type":"Feature","properties":{"etiqueta":"Villa Luro"},"geometry":{"type":"Polygon","coordinates":[[[-58.507293,-34.627599],[-58.501042,-34.632213],[-58.499977,-34.631781],[-58.493799,-34.636651],[-58.493116,-34.636518],[-58.49332,-34.636968],[-58.487806,-34.641304],[-58.495302,-34.644852],[-58.497137,-34.643414],[-58.502299,-34.645823],[-58.509822,-34.640013],[-58.510509,-34.637376],[-58.505672,-34.636723],[-58.506819,-34.635817],[-58.507651,-34.635896],[-58.51067,-34.634822],[-58.508388,-34.634604],[-58.516381,-34.628455],[-58.511651,-34.624284],[-58.507293,-34.627599]]]}},{"type":"Feature","properties":{"etiqueta":"Villa Ortúzar"},"geometry":{"type":"Polygon","coordinates":[[[-58.463357,-34.575014],[-58.460227,-34.578301],[-58.46053,-34.5783],[-58.460537,-34.58495],[-58.460381,-34.585533],[-58.461872,-34.586048],[-58.46683,-34.590599],[-58.470806,-34.587466],[-58.473649,-34.582067],[-58.473572,-34.581771],[-58.473996,-34.581633],[-58.475425,-34.579964],[-58.478989,-34.579131],[-58.467366,-34.572502],[-58.463357,-34.575014]]]}},{"type":"Feature","properties":{"etiqueta":"Villa Pueyrredón"},"geometry":{"type":"Polygon","coordinates":[[[-58.50904,-34.570003],[-58.502947,-34.573555],[-58.493246,-34.581029],[-58.488794,-34.584824],[-58.503472,-34.593959],[-58.514516,-34.58175],[-58.51497,-34.581322],[-58.515536,-34.581274],[-58.509875,-34.569271],[-58.50904,-34.570003]]]}},{"type":"Feature","properties":{"etiqueta":"Villa Real"},"geometry":{"type":"Polygon","coordinates":[[[-58.516949,-34.62022],[-58.521636,-34.62441],[-58.522831,-34.623491],[-58.530801,-34.627528],[-58.531517,-34.615499],[-58.529468,-34.610901],[-58.525059,-34.613968],[-58.516949,-34.62022]]]}},{"type":"Feature","properties":{"etiqueta":"Villa Riachuelo"},"geometry":{"type":"Polygon","coordinates":[[[-58.444297,-34.684935],[-58.461586,-34.705355],[-58.483355,-34.688958],[-58.475798,-34.682141],[-58.463397,-34.691795],[-58.459008,-34.687766],[-58.457509,-34.686212],[-58.455425,-34.684479],[-58.451143,-34.680541],[-58.451166,-34.680752],[-58.450967,-34.680867],[-58.45032,-34.680432],[-58.449937,-34.680505],[-58.444297,-34.684935]]]}},{"type":"Feature","properties":{"etiqueta":"Villa Santa Rita"},"geometry":{"type":"Polygon","coordinates":[[[-58.471622,-34.61916],[-58.4788,-34.622915],[-58.482743,-34.624635],[-58.494786,-34.615021],[-58.492266,-34.612866],[-58.488655,-34.610141],[-58.480411,-34.608132],[-58.471622,-34.61916]]]}},{"type":"Feature","properties":{"etiqueta":"Villa Soldati"},"geometry":{"type":"Polygon","coordinates":[[[-58.434436,-34.653117],[-58.426748,-34.658678],[-58.424044,-34.662052],[-58.425774,-34.663281],[-58.427398,-34.664883],[-58.444297,-34.684935],[-58.449937,-34.680505],[-58.45032,-34.680432],[-58.450791,-34.680835],[-58.4511,-34.680822],[-58.451143,-34.680541],[-58.450643,-34.680042],[-58.450777,-34.679842],[-58.457728,-34.674386],[-58.458518,-34.673858],[-58.459406,-34.673656],[-58.459933,-34.672672],[-58.462259,-34.670622],[-58.463228,-34.669392],[-58.463649,-34.669159],[-58.46477,-34.668883],[-58.470163,-34.664673],[-58.470441,-34.664282],[-58.470395,-34.663774],[-58.469936,-34.6636],[-58.46924,-34.663881],[-58.468453,-34.66366],[-58.464431,-34.660053],[-58.461582,-34.657883],[-58.455063,-34.652303],[-58.454862,-34.651995],[-58.454638,-34.650827],[-58.451976,-34.651083],[-58.44883,-34.651179],[-58.444622,-34.650952],[-58.443326,-34.651194],[-58.442954,-34.651902],[-58.438008,-34.655807],[-58.434436,-34.653117]]]}},{"type":"Feature","properties":{"etiqueta":"Villa Urquiza"},"geometry":{"type":"Polygon","coordinates":[[[-58.47299,-34.566442],[-58.47337,-34.566668],[-58.468083,-34.572915],[-58.488794,-34.584824],[-58.493246,-34.581029],[-58.502947,-34.573555],[-58.50904,-34.570003],[-58.508818,-34.569515],[-58.508605,-34.569398],[-58.491931,-34.561308],[-58.490992,-34.562657],[-58.483561,-34.559111],[-58.481159,-34.562506],[-58.480227,-34.563242],[-58.480375,-34.563323],[-58.479056,-34.563938],[-58.479313,-34.564072],[-58.476191,-34.566855],[-58.475125,-34.566225],[-58.474596,-34.566817],[-58.47299,-34.566442]]]}}]}