{"type":"FeatureCollection","features":[{"type":"Feature","properties":{"id":43,"nombre":"Agronomía","comuna":15},"geometry":{"type":"Point","coordinates":[-58.488673,-34.59295]}},{"type":"Feature","properties":{"id":14,"nombre":"Almagro","comuna":5},"geometry":{"type":"Point","coordinates":[-58.421748,-34.609232]}},{"type":"Feature","properties":{"id":8,"nombre":"Balvanera","comuna":3},"geometry":{"type":"Point","coordinates":[-58.403066,-34.609104]}},{"type":"Feature","properties":{"id":10,"nombre":"Barracas","comuna":4},"geometry":{"type":"Point","coordinates":[-58.384275,-34.646409]}},{"type":"Feature","properties":{"id":39,"nombre":"Belgrano","comuna":13},"geometry":{"type":"Point","coordinates":[-58.450104,-34.554703]}},{"type":"Feature","properties":{"id":11,"nombre":"La Boca","comuna":4},"geometry":{"type":"Point","coordinates":[-58.35682,-34.63107]}},{"type":"Feature","properties":{"id":15,"nombre":"Boedo","comuna":5},"geometry":{"type":"Point","coordinates":[-58.418843,-34.629964]}},{"type":"Feature","properties":{"id":16,"nombre":"Caballito","comuna":6},"geometry":{"type":"Point","coordinates":[-58.443605,-34.61683]}},{"type":"Feature","properties":{"id":44,"nombre":"Chacarita","comuna":15},"geometry":{"type":"Point","coordinates":[-58.454182,-34.588374]}},{"type":"Feature","properties":{"id":35,"nombre":"Coghlan","comuna":12},"geometry":{"type":"Point","coordinates":[-58.474946,-34.56063]}},{"type":"Feature","properties":{"id":40,"nombre":"Colegiales","comuna":13},"geometry":{"type":"Point","coordinates":[-58.45097,-34.574647]}},{"type":"Feature","properties":{"id":1,"nombre":"Constitución","comuna":1},"geometry":{"type":"Point","coordinates":[-58.384393,-34.625048]}},{"type":"Feature","properties":{"id":17,"nombre":"Flores","comuna":7},"geometry":{"type":"Point","coordinates":[-58.45827,-34.636808]}},{"type":"Feature","properties":{"id":25,"nombre":"Floresta","comuna":10},"geometry":{"type":"Point","coordinates":[-58.483588,-34.627691]}},{"type":"Feature","properties":{"id":22,"nombre":"Liniers","comuna":9},"geometry":{"type":"Point","coordinates":[-58.519127,-34.643801]}},{"type":"Feature","properties":{"id":23,"nombre":"Mataderos","comuna":9},"geometry":{"type":"Point","coordinates":[-58.501737,-34.658378]}},{"type":"Feature","properties":{"id":2,"nombre":"Monserrat","comuna":1},"geometry":{"type":"Point","coordinates":[-58.379653,-34.61269]}},{"type":"Feature","properties":{"id":26,"nombre":"Monte Castro","comuna":10},"geometry":{"type":"Point","coordinates":[-58.506581,-34.619303]}},{"type":"Feature","properties":{"id":12,"nombre":"Nueva Pompeya","comuna":4},"geometry":{"type":"Point","coordinates":[-58.418879,-34.650522]}},{"type":"Feature","properties":{"id":41,"nombre":"Núñez","comuna":13},"geometry":{"type":"Point","coordinates":[-58.462606,-34.543307]}},{"type":"Feature","properties":{"id":42,"nombre":"Palermo","comuna":14},"geometry":{"type":"Point","coordinates":[-58.4223,-34.573776]}},{"type":"Feature","properties":{"id":24,"nombre":"Parque Avellaneda","comuna":9},"geometry":{"type":"Point","coordinates":[-58.476456,-34.648646]}},{"type":"Feature","properties":{"id":18,"nombre":"Parque Chacabuco","comuna":7},"geometry":{"type":"Point","coordinates":[-58.437698,-34.635944]}},{"type":"Feature","properties":{"id":46,"nombre":"Parque Chas","comuna":15},"geometry":{"type":"Point","coordinates":[-58.479122,-34.585528]}},{"type":"Feature","properties":{"id":13,"nombre":"Parque Patricios","comuna":4},"geometry":{"type":"Point","coordinates":[-58.401679,-34.637555]}},{"type":"Feature","properties":{"id":45,"nombre":"La Paternal","comuna":15},"geometry":{"type":"Point","coordinates":[-58.468666,-34.597427]}},{"type":"Feature","properties":{"id":3,"nombre":"Puerto Madero","comuna":1},"geometry":{"type":"Point","coordinates":[-58.356357,-34.609224]}},{"type":"Feature","properties":{"id":7,"nombre":"Recoleta","comuna":2},"geometry":{"type":"Point","coordinates":[-58.394691,-34.585563]}},{"type":"Feature","properties":{"id":4,"nombre":"Retiro","comuna":1},"geometry":{"type":"Point","coordinates":[-58.375994,-34.588404]}},{"type":"Feature","properties":{"id":36,"nombre":"Saavedra","comuna":12},"geometry":{"type":"Point","coordinates":[-58.488745,-34.553083]}},{"type":"Feature","properties":{"id":9,"nombre":"San Cristóbal","comuna":3},"geometry":{"type":"Point","coordinates":[-58.401888,-34.623869]}},{"type":"Feature","properties":{"id":5,"nombre":"San Nicolás","comuna":1},"geometry":{"type":"Point","coordinates":[-58.38052,-34.603671]}},{"type":"Feature","properties":{"id":6,"nombre":"San Telmo","comuna":1},"geometry":{"type":"Point","coordinates":[-58.371546,-34.621525]}},{"type":"Feature","properties":{"id":27,"nombre":"Vélez Sársfield","comuna":10},"geometry":{"type":"Point","coordinates":[-58.493277,-34.631366]}},{"type":"Feature","properties":{"id":28,"nombre":"Versalles","comuna":10},"geometry":{"type":"Point","coordinates":[-58.522416,-34.630128]}},{"type":"Feature","properties":{"id":47,"nombre":"Villa Crespo","comuna":15},"geometry":{"type":"Point","coordinates":[-58.442727,-34.598835]}},{"type":"Feature","properties":{"id":31,"nombre":"Villa del Parque","comuna":11},"geometry":{"type":"Point","coordinates":[-58.490677,-34.604252]}},{"type":"Feature","properties":{"id":32,"nombre":"Villa Devoto","comuna":11},"geometry":{"type":"Point","coordinates":[-58.514282,-34.60236]}},{"type":"Feature","properties":{"id":33,"nombre":"Villa General Mitre","comuna":11},"geometry":{"type":"Point","coordinates":[-58.468944,-34.610034]}},{"type":"Feature","properties":{"id":19,"nombre":"Villa Lugano","comuna":8},"geometry":{"type":"Point","coordinates":[-58.476168,-34.674997]}},{"type":"Feature","properties":{"id":29,"nombre":"Villa Luro","comuna":10},"geometry":{"type":"Point","coordinates":[-58.502729,-34.636418]}},{"type":"Feature","properties":{"id":48,"nombre":"Villa Ortúzar","comuna":15},"geometry":{"type":"Point","coordinates":[-58.467653,-34.580979]}},{"type":"Feature","properties":{"id":37,"nombre":"Villa Pueyrredón","comuna":12},"geometry":{"type":"Point","coordinates":[-58.503499,-34.582109]}},{"type":"Feature","properties":{"id":30,"nombre":"Villa Real","comuna":10},"geometry":{"type":"Point","coordinates":[-58.526037,-34.619498]}},{"type":"Feature","properties":{"id":20,"nombre":"Villa Riachuelo","comuna":8},"geometry":{"type":"Point","coordinates":[-58.46334,-34.691874]}},{"type":"Feature","properties":{"id":34,"nombre":"Villa Santa Rita","comuna":11},"geometry":{"type":"Point","coordinates":[-58.482957,-34.616199]}},{"type":"Feature","properties":{"id":21,"nombre":"Villa Soldati","comuna":8},"geometry":{"type":"Point","coordinates":[-58.446583,-34.665425]}},{"type":"Feature","properties":{"id":38,"nombre":"Villa Urquiza","comuna":12},"geometry":{"type":"Point","coordinates":[-58.487856,-34.571547]}}]}