{"type":"FeatureCollection","features":[{"type":"Feature","properties":{"comuna":1},"geometry":{"type":"MultiPolygon","coordinates":[[[[-58.348918024943885,-34.616976361762624],[-58.34948591298834,-34.61707924426092],[-58.35016623891,-34.617507344526686],[-58.350227567751034,-34.61821127715191],[-58.34979982038545,-34.61822021253063],[-58.35010712202843,-34.61848463279688],[-58.34997367686602,-34.618721740780664],[-58.350728266000246,-34.61855613302088],[-58.35037570948102,-34.61893978016405],[-58.35068305524135,-34.61917485059254],[-58.351224318057554,-34.61922891859672],[-58.35192327015098,-34.61962439559364],[-58.352570996819516,-34.61954285426077],[-58.35269850298576,-34.619775295350834],[-58.353523086601285,-34.61940937356785],[-58.354079318004544,-34.619705660875645],[-58.35425512483615,-34.61946832939839],[-58.3551455569975,-34.61955482270506],[-58.3560162075528,-34.617610896798965],[-58.363201122688885,-34.625139574833234],[-58.36797657673252,-34.625199763135186],[-58.36795049636793,-34.62714666538916],[-58.37066323406008,-34.62949785076114],[-58.37096872656504,-34.62665144696798],[-58.37456562467141,-34.62680369522484],[-58.379049190418385,-34.629337746977214],[-58.378626122498254,-34.63050324041974],[-58.379514867131,-34.632215631575356],[-58.380096943264526,-34.632636386186185],[-58.38014808978738,-34.63303593551952],[-58.38125494654735,-34.63307428411365],[-58.38133730586496,-34.63084939427818],[-58.383396204704034,-34.632224785746125],[-58.39035697026888,-34.634128602067136],[-58.39143573140747,-34.623992939260184],[-58.39181098256765,-34.61128469148095],[-58.39239155111659,-34.60316033810168],[-58.392935333707776,-34.59964214930214],[-58.386868203764436,-34.59929786043728],[-58.38727517074096,-34.59475198684766],[-58.38795472885699,-34.59165341346785],[-58.38369087887974,-34.587505583241736],[-58.38450398753848,-34.58696612905157],[-58.385330107543204,-34.58538877054289],[-58.38696844658319,-34.58355674501224],[-58.38839673729451,-34.582490075306005],[-58.39164933888166,-34.58083641962399],[-58.389869341696375,-34.578207133668116],[-58.38357629120498,-34.5782407460442],[-58.38286191121295,-34.5784540846302],[-58.379841464837774,-34.58016729947032],[-58.376165404597224,-34.579955854036996],[-58.375126880746755,-34.5805254281304],[-58.373977174409106,-34.57910768707074],[-58.37671626106816,-34.57755069258156],[-58.376046345176654,-34.57748950091274],[-58.37603264525647,-34.577728188581474],[-58.37428889158243,-34.57870957317203],[-58.36795553859234,-34.578211416651854],[-58.36532103559171,-34.57971019325498],[-58.36524908773653,-34.58014986863127],[-58.37061434109694,-34.580600853076405],[-58.37056365412353,-34.58083540230601],[-58.36899339377805,-34.581730265889846],[-58.36162502808646,-34.581152385208505],[-58.361417757287526,-34.58296893642792],[-58.36610964672991,-34.58334017362031],[-58.36614851142904,-34.58356375333382],[-58.36494652313514,-34.584504548357486],[-58.35992042240929,-34.5841233530128],[-58.359729103818744,-34.58592406871261],[-58.36364863874597,-34.58624596742896],[-58.363527535469785,-34.58746271693558],[-58.35960762309352,-34.58718936741614],[-58.359461950233104,-34.58808498390018],[-58.35980209873714,-34.58834023603896],[-58.360850264696154,-34.58856520357075],[-58.36074617289418,-34.58894111618002],[-58.36089451782915,-34.588568967197965],[-58.36799692103641,-34.59001338072157],[-58.367911996067114,-34.59043441526866],[-58.36652469731056,-34.590976308946935],[-58.364371922353534,-34.59426982427037],[-58.36483299645317,-34.59446191090037],[-58.36590338125743,-34.592834232994775],[-58.36615534448451,-34.59286423217537],[-58.36698871144696,-34.59150804797453],[-58.36724434993338,-34.59139965949867],[-58.36638268589021,-34.592984048011296],[-58.36692979538527,-34.59320400395767],[-58.36784337476978,-34.59194148470337],[-58.36793241491001,-34.59209217583462],[-58.36715714784721,-34.59331409921127],[-58.36908347850895,-34.59415699080479],[-58.36791353151089,-34.59747857900049],[-58.36649790025221,-34.597418775285895],[-58.3663773075089,-34.598226844381244],[-58.366093909072035,-34.59820853822204],[-58.36615974297176,-34.597388831731905],[-58.36383556620314,-34.597202842063325],[-58.36441049459098,-34.59550952550862],[-58.364105689289474,-34.59531635472929],[-58.36387161920977,-34.595420706733634],[-58.36148309785111,-34.595132896250064],[-58.361245076454395,-34.59528039892109],[-58.36303655265061,-34.595285327624595],[-58.36384791399487,-34.59548607637648],[-58.36342174838141,-34.59666429173523],[-58.36248303905772,-34.596502514012926],[-58.36033448322037,-34.59547098800621],[-58.36037788217586,-34.59508221202916],[-58.36110346649097,-34.59510585148152],[-58.35414917509483,-34.59466946306939],[-58.35096485791214,-34.59515023880387],[-58.35411744927475,-34.59470716193262],[-58.3567689269046,-34.594935285715174],[-58.35544208107028,-34.59531620889799],[-58.353442385181246,-34.59669698000774],[-58.35241081038686,-34.59790534643542],[-58.346783015009365,-34.60236350520466],[-58.34587208667433,-34.60670678603408],[-58.34128636791876,-34.61008683200916],[-58.34086724732706,-34.61066835461807],[-58.33986582955643,-34.61487450645146],[-58.33987707464777,-34.61609972445709],[-58.340718261518056,-34.616899073261],[-58.34115278623445,-34.61702138576532],[-58.34263634034159,-34.617084346575915],[-58.344862487949804,-34.61773245468687],[-58.34717908191375,-34.617360960462996],[-58.34829884134812,-34.61693213087515],[-58.348918024943885,-34.616976361762624]]],[[[-58.355437805409146,-34.59190175313032],[-58.35818646256386,-34.57934265979816],[-58.36764893308296,-34.5738994597077],[-58.368639438372654,-34.573713015612505],[-58.36967777922454,-34.57395969028232],[-58.36868413224003,-34.57365682472046],[-58.36753998586562,-34.57388612062015],[-58.358125063733176,-34.57930942635149],[-58.35529656882908,-34.59168756437871],[-58.355437805409146,-34.59190175313032]]]]}},{"type":"Feature","properties":{"comuna":2},"geometry":{"type":"Polygon","coordinates":[[[-58.38039473358405,-34.568466077808594],[-58.379960350933935,-34.568203880754226],[-58.3681686748618,-34.56723723750758],[-58.379785272678646,-34.568310417331524],[-58.38022526064687,-34.56869666431474],[-58.38023422068042,-34.56984564966574],[-58.3800082486756,-34.569971511526106],[-58.38003022933984,-34.57037267398053],[-58.37877614841892,-34.570355047329514],[-58.37616391128904,-34.57165990605206],[-58.36176174534931,-34.570646552283726],[-58.359845713592144,-34.57174786314672],[-58.3621041645752,-34.57074504955341],[-58.37614935554656,-34.57180581775957],[-58.37117491294684,-34.574903083579144],[-58.378684759041185,-34.570480861923144],[-58.38036111212539,-34.57047919907209],[-58.380506938288235,-34.57104366498395],[-58.37830896726909,-34.572309975435594],[-58.37828309008249,-34.57274684626169],[-58.38355190678554,-34.57319043613817],[-58.38357742718038,-34.57342514722379],[-58.3818168163524,-34.57441578676828],[-58.375443919500846,-34.57393073573305],[-58.37076160571863,-34.57660600667298],[-58.37071432618613,-34.577054817634696],[-58.37671626106816,-34.57755069258156],[-58.373977174409106,-34.57910768707074],[-58.375126880746755,-34.5805254281304],[-58.376165404597224,-34.579955854036996],[-58.379841464837774,-34.58016729947032],[-58.38286191121295,-34.5784540846302],[-58.38357629120498,-34.5782407460442],[-58.389869341696375,-34.578207133668116],[-58.39164933888166,-34.58083641962399],[-58.38839673729451,-34.582490075306005],[-58.38696844658319,-34.58355674501224],[-58.385330107543204,-34.58538877054289],[-58.38450398753848,-34.58696612905157],[-58.38369087887974,-34.587505583241736],[-58.38795472885699,-34.59165341346785],[-58.38727517074096,-34.59475198684766],[-58.386868203764436,-34.59929786043728],[-58.39872726394246,-34.59976535365024],[-58.40201234297378,-34.59937478760249],[-58.40451071644731,-34.598041065991],[-58.410297912265605,-34.598097872604676],[-58.41600403600113,-34.597859933549024],[-58.414397287745764,-34.59405930920153],[-58.41008489098121,-34.589062491173905],[-58.40617642820399,-34.58346470960735],[-58.40194733042239,-34.58343181108031],[-58.40054799256822,-34.584477245354066],[-58.396564195981334,-34.578512233282034],[-58.40114888534915,-34.57574233895357],[-58.4026506816133,-34.574146009020055],[-58.39972018078613,-34.57081264566094],[-58.3997022573878,-34.570023478706126],[-58.40013108172107,-34.5693546362421],[-58.39521040516281,-34.57219633516647],[-58.39284439159741,-34.57223851937547],[-58.392988738896264,-34.57198170984931],[-58.38794483725291,-34.57487735658503],[-58.386648203813365,-34.573230796984284],[-58.39126553617799,-34.57061099020856],[-58.3904950886105,-34.56942898897008],[-58.384285969762935,-34.56889937155141],[-58.3832305657687,-34.56839300050929],[-58.38146827466691,-34.56842771226113],[-58.38100035945013,-34.56858472011782],[-58.38071177905449,-34.57011796206073],[-58.38035794268091,-34.570103317355645],[-58.38039473358405,-34.568466077808594]]]}},{"type":"Feature","properties":{"comuna":3},"geometry":{"type":"Polygon","coordinates":[[[-58.41192253140974,-34.59800821515629],[-58.40451071644731,-34.598041065991],[-58.40201234297378,-34.59937478760249],[-58.39872726394246,-34.59976535365024],[-58.392935333707776,-34.59964214930214],[-58.39239155111659,-34.60316033810168],[-58.39181098256765,-34.61128469148095],[-58.39161486777131,-34.620544060718274],[-58.39117418686142,-34.62725739800156],[-58.39216377407575,-34.62726797946864],[-58.398598161218764,-34.628410376997714],[-58.40836812467837,-34.6295203914632],[-58.41178281112581,-34.63036027048347],[-58.41233697069864,-34.62303746480651],[-58.41204540701838,-34.622979384112355],[-58.41244032418157,-34.62188798772624],[-58.4128735978394,-34.61412102787183],[-58.41447055478863,-34.61074128013696],[-58.41466351449463,-34.60819498354091],[-58.41410247688071,-34.6079119377021],[-58.41391182486221,-34.607251288356004],[-58.41192253140974,-34.59800821515629]]]}},{"type":"Feature","properties":{"comuna":4},"geometry":{"type":"Polygon","coordinates":[[[-58.355206411665044,-34.61943507715094],[-58.35425512483615,-34.61946832939837],[-58.35407931800456,-34.619705660875645],[-58.3535230866013,-34.61940937356785],[-58.35269850298577,-34.619775295350834],[-58.35257099681953,-34.61954285426077],[-58.35192327015099,-34.61962439559364],[-58.35123099637744,-34.61935718133558],[-58.35077676797017,-34.61967595746911],[-58.350687826500256,-34.61955841599759],[-58.349578105669245,-34.619794673355266],[-58.3478443939438,-34.61895545622068],[-58.346568688811864,-34.61910695248077],[-58.345225110893594,-34.61880794055796],[-58.34461325229947,-34.61899051514879],[-58.344681577702026,-34.61963167256537],[-58.34519826639902,-34.61983633083844],[-58.345452083830686,-34.61987664437259],[-58.346339028179955,-34.61921019557378],[-58.34715670335587,-34.619993611254834],[-58.34697243676792,-34.62099292073354],[-58.34645868588963,-34.62162394833626],[-58.34651766481345,-34.621994660029316],[-58.34593849276325,-34.622959824469206],[-58.34587268502645,-34.62227977791525],[-58.346068932059346,-34.622271759256044],[-58.346098070823444,-34.62201267359303],[-58.345812409097306,-34.62188193378502],[-58.3457563521089,-34.622114618844186],[-58.34548549103092,-34.62152672547246],[-58.34470984164492,-34.62134526468765],[-58.34407006836646,-34.62176003457747],[-58.34435052103233,-34.6205253512654],[-58.34378856992695,-34.61883046679264],[-58.34204952563823,-34.61849562533234],[-58.34039462665553,-34.618690151386595],[-58.33983662301744,-34.61848979290983],[-58.33859342720191,-34.61864336782163],[-58.33807004511606,-34.61896534584431],[-58.3375194974124,-34.620014172485405],[-58.33741769324427,-34.620921002848775],[-58.336928222184376,-34.62181892080686],[-58.33721667291444,-34.62252946490124],[-58.33796243374806,-34.62281289390173],[-58.339524954960204,-34.62258911584109],[-58.341904247116894,-34.62282720703148],[-58.341921112655434,-34.622356732070145],[-58.34213596334987,-34.622246813960125],[-58.34303756808641,-34.622714440810626],[-58.34237750571072,-34.623377718966225],[-58.34189049390278,-34.62303904288863],[-58.34068802365425,-34.623028299543165],[-58.3400529983697,-34.62324135613477],[-58.33824078306472,-34.62470313177132],[-58.337027693970654,-34.62489012336849],[-58.33516771962464,-34.62642918110419],[-58.33515871099866,-34.627099027774285],[-58.336261850579135,-34.628028123506034],[-58.336204302121324,-34.62818317588059],[-58.3364392142234,-34.62806876912978],[-58.33698547292165,-34.628222131724016],[-58.336925889915285,-34.62837779529242],[-58.33928395026463,-34.6288971019111],[-58.339125055655224,-34.62879319251163],[-58.33945098635671,-34.628615329873085],[-58.33975445734154,-34.627834157274215],[-58.34026792167387,-34.62797328274399],[-58.34055642993645,-34.62773730553732],[-58.34066854672767,-34.62783356711925],[-58.34067577342607,-34.62762815392144],[-58.34107414852302,-34.62730264258708],[-58.34118803842203,-34.62739369708359],[-58.34245139746348,-34.62617352063797],[-58.344277550703744,-34.62637863731788],[-58.341405728899375,-34.628897793970914],[-58.34251414819407,-34.62945980994724],[-58.34332582283825,-34.62922545013488],[-58.34458192964244,-34.62800329058018],[-58.345378383885944,-34.62866941572975],[-58.34705532849174,-34.62728622339436],[-58.34876421747771,-34.62868932729415],[-58.34844128997503,-34.62895337786123],[-58.34877966345608,-34.62892396276655],[-58.34878983592163,-34.62908795549466],[-58.34848505446356,-34.62939586363308],[-58.34844483424369,-34.62986324497397],[-58.34796670499064,-34.62994161645269],[-58.34791125851742,-34.63013463139213],[-58.348271400843934,-34.63009204155963],[-58.348315231541264,-34.630277641456864],[-58.347931785530314,-34.63115757195418],[-58.347693470236344,-34.63092934723848],[-58.34757529892403,-34.631397538550665],[-58.346103125871046,-34.63166360858981],[-58.34758815293729,-34.632076069960675],[-58.34782185429306,-34.632324479511574],[-58.34907377940418,-34.63256081916418],[-58.350192280855694,-34.63230412386063],[-58.351252329532755,-34.631257594236224],[-58.35207636292805,-34.62923833513091],[-58.352387635098474,-34.629014982278306],[-58.35299393252348,-34.62916585969125],[-58.35397275743996,-34.628093404003984],[-58.360299773363764,-34.6239487989111],[-58.36050830609315,-34.62390136459705],[-58.36084282723652,-34.62425629648735],[-58.36177270069493,-34.623643256692006],[-58.361918552157356,-34.62379607468305],[-58.36102407931242,-34.62439800102569],[-58.361267640712036,-34.62468892683846],[-58.35584729248601,-34.62819216145565],[-58.35469455582076,-34.62923314779469],[-58.35379252944802,-34.630675219511105],[-58.35276622900297,-34.63356686204232],[-58.35325206376397,-34.63511462659427],[-58.35414355928804,-34.63652162500736],[-58.35604899174639,-34.63754218829327],[-58.35696874286239,-34.638573315179094],[-58.35803214647837,-34.63920578608744],[-58.36035911561575,-34.63919250782274],[-58.36112758674849,-34.639399218677674],[-58.36144408440404,-34.63987110613079],[-58.3609080967149,-34.64072676724534],[-58.35848645955345,-34.641558521510326],[-58.358130708101854,-34.64187269937199],[-58.357327682180724,-34.64404736158589],[-58.35760360074182,-34.64498371366717],[-58.35981916193726,-34.64597475388048],[-58.36180617237302,-34.64783060388575],[-58.36239907199249,-34.64814933953357],[-58.364338595853205,-34.64822755912233],[-58.364976151086516,-34.64879290769269],[-58.3696618484966,-34.65133795769121],[-58.37001717285527,-34.6521064604499],[-58.36967610712589,-34.65323568373368],[-58.36979205642941,-34.6535823682468],[-58.37241716690687,-34.65500707996154],[-58.37412390902166,-34.656768650021675],[-58.375107340265025,-34.65694871688271],[-58.377385947374165,-34.65693042374112],[-58.3792544703148,-34.657456480917475],[-58.383414400058115,-34.65752653997067],[-58.385178826856205,-34.65785043527689],[-58.38644654115373,-34.65870983914377],[-58.38691024515562,-34.65941018264923],[-58.38801948498511,-34.66033243429376],[-58.390743007672775,-34.661023826146206],[-58.39159083759103,-34.661907251980985],[-58.39318379781519,-34.66229740953415],[-58.39557539517723,-34.66186218819551],[-58.39728787327114,-34.66196437502627],[-58.39792581493132,-34.66122716088881],[-58.39981027295585,-34.660911132425746],[-58.4007285753549,-34.66050267651022],[-58.40110165243975,-34.65995322248846],[-58.40253489805445,-34.65942620729705],[-58.40400421940214,-34.65942610141871],[-58.40640529916393,-34.660008047818934],[-58.407232234297126,-34.66000485318271],[-58.40898151209805,-34.65960663527308],[-58.41013200075018,-34.65889074846985],[-58.41240951035112,-34.658384512897726],[-58.41455828475028,-34.658611743014845],[-58.420026974944314,-34.66017063344226],[-58.42184954992829,-34.6608611841811],[-58.424043891438195,-34.6620516470974],[-58.42674830161658,-34.65867794737795],[-58.43443587935198,-34.653117109717876],[-58.430432458920855,-34.649878374808424],[-58.43492550133184,-34.64624102483316],[-58.43262063815402,-34.64522017690079],[-58.432110074021494,-34.645167863527476],[-58.43234695414734,-34.64174550061151],[-58.41126390426368,-34.638103577189355],[-58.41049206922789,-34.63524181008535],[-58.411524050933075,-34.63286110190781],[-58.411782811125846,-34.63036027048347],[-58.40836812467837,-34.6295203914632],[-58.39859816121875,-34.62841037699772],[-58.39216377407576,-34.62726797946864],[-58.39117418686142,-34.62725739800156],[-58.39035697026888,-34.634128602067136],[-58.383396204704034,-34.632224785746125],[-58.38133730586496,-34.63084939427818],[-58.381254946547365,-34.63307428411365],[-58.38014808978738,-34.63303593551952],[-58.38009694326454,-34.632636386186185],[-58.379514867131,-34.632215631575356],[-58.378626122498254,-34.63050324041974],[-58.379049190418385,-34.629337746977214],[-58.375577944126384,-34.62730591248493],[-58.37456562467144,-34.62680369522484],[-58.37096872656504,-34.62665144696798],[-58.370663234060096,-34.62949785076114],[-58.36795049636794,-34.62714666538916],[-58.36797657673252,-34.6251997631352],[-58.3632011226889,-34.62513957483324],[-58.3560162075528,-34.617610896798965],[-58.355206411665044,-34.61943507715094]]]}},{"type":"Feature","properties":{"comuna":5},"geometry":{"type":"Polygon","coordinates":[[[-58.4128735978394,-34.61412102787183],[-58.41244032418157,-34.62188798772624],[-58.41204540701838,-34.622979384112355],[-58.41233697069864,-34.62303746480651],[-58.411524050933046,-34.63286110190779],[-58.41049206922788,-34.63524181008535],[-58.41126390426364,-34.63810357718933],[-58.42349481677904,-34.64020460971672],[-58.425805605779814,-34.631288566164734],[-58.4292553500569,-34.61511051469348],[-58.43003137426663,-34.61545404367605],[-58.43067198877805,-34.60594640975917],[-58.43333687771965,-34.60267859363733],[-58.432243441632785,-34.60213894439448],[-58.42943185651599,-34.599131389417884],[-58.42678829291573,-34.5979494812089],[-58.422842633706104,-34.59771800172148],[-58.41192253140974,-34.59800821515629],[-58.41391182486221,-34.607251288356004],[-58.41410247688071,-34.6079119377021],[-58.41466351449463,-34.60819498354091],[-58.41447055478863,-34.61074128013696],[-58.4128735978394,-34.61412102787183]]]}},{"type":"Feature","properties":{"comuna":6},"geometry":{"type":"Polygon","coordinates":[[[-58.430608699695775,-34.607052112479266],[-58.43003137426665,-34.61545404367607],[-58.4292553500569,-34.61511051469348],[-58.42675870469671,-34.62700303506082],[-58.45157819570983,-34.630643688528856],[-58.46270615195231,-34.60737818546292],[-58.458475643600124,-34.6044970632697],[-58.446249635039464,-34.607620731773416],[-58.43920415657378,-34.605587963253505],[-58.43333687771965,-34.60267859363734],[-58.430671988778066,-34.60594640975917],[-58.430608699695775,-34.607052112479266]]]}},{"type":"Feature","properties":{"comuna":7},"geometry":{"type":"Polygon","coordinates":[[[-58.45199705483173,-34.62975005683256],[-58.45157819570983,-34.630643688528856],[-58.42675870469671,-34.62700303506082],[-58.423494816779055,-34.64020460971673],[-58.43234695414734,-34.64174550061151],[-58.432110074021494,-34.645167863527476],[-58.43262063815402,-34.64522017690079],[-58.43492550133184,-34.64624102483316],[-58.430432458920855,-34.649878374808424],[-58.438007702623175,-34.65580743858055],[-58.442953640516514,-34.65190175551869],[-58.44332595519617,-34.65119399460118],[-58.44462216107317,-34.6509521566124],[-58.44882995498073,-34.65117920902863],[-58.45463778581161,-34.65082722194169],[-58.455063296518226,-34.652303458850824],[-58.46040313335783,-34.65681049338795],[-58.46542779937023,-34.65290062446607],[-58.46703464979254,-34.65147244740455],[-58.46300023686062,-34.64617448926002],[-58.469243330807224,-34.64140132363981],[-58.47780801107838,-34.62238921186758],[-58.468636408887924,-34.61756665932689],[-58.464539949842525,-34.61579273275089],[-58.459449971836904,-34.61389068145688],[-58.45199705483173,-34.62975005683256]]]}},{"type":"Feature","properties":{"comuna":8},"geometry":{"type":"Polygon","coordinates":[[[-58.44913385921159,-34.65116988532218],[-58.44462216107317,-34.6509521566124],[-58.44332595519617,-34.65119399460118],[-58.442953640516514,-34.65190175551869],[-58.438007702623175,-34.65580743858055],[-58.43443587935198,-34.653117109717876],[-58.42674830161658,-34.65867794737795],[-58.424043891438195,-34.6620516470974],[-58.42577390515153,-34.66328083867108],[-58.427398015284595,-34.66488252103516],[-58.4615856913617,-34.705355483937794],[-58.50252527504022,-34.674512432484015],[-58.49912702067697,-34.67263991821396],[-58.49703952515368,-34.67118424077124],[-58.48895242145443,-34.66335244324564],[-58.485945451344016,-34.66245218909218],[-58.47881829373255,-34.657848560507574],[-58.47251602641476,-34.66277676243772],[-58.47057138882731,-34.65843091443367],[-58.46955682463585,-34.65910942700471],[-58.46765625455309,-34.65751952387692],[-58.46443135241803,-34.66005337230465],[-58.46158151873423,-34.65788256463882],[-58.455063296518226,-34.652303458850824],[-58.45463778581161,-34.65082722194169],[-58.44913385921159,-34.65116988532218]]]}},{"type":"Feature","properties":{"comuna":9},"geometry":{"type":"Polygon","coordinates":[[[-58.51925301107606,-34.63301496355282],[-58.51486319473526,-34.63320792677432],[-58.513322146500286,-34.63366972917707],[-58.50882986433573,-34.635558197559256],[-58.50765103216557,-34.635895889023416],[-58.50681882923088,-34.635817173289944],[-58.50567176664867,-34.63672260169123],[-58.51050891943808,-34.63737563432314],[-58.50982153516651,-34.640013005499306],[-58.50229906905262,-34.64582266350144],[-58.49713742592192,-34.64341397409885],[-58.49530206457031,-34.644852439732254],[-58.478546192563456,-34.63699885547769],[-58.476073061293455,-34.63893922752052],[-58.47349312585017,-34.637312906116335],[-58.47130386272256,-34.636659753938936],[-58.469243330807224,-34.64140132363981],[-58.46300023686062,-34.64617448926002],[-58.46703464979254,-34.65147244740455],[-58.46040313335783,-34.65681049338795],[-58.46443135241803,-34.66005337230465],[-58.46765625455309,-34.65751952387692],[-58.46955682463585,-34.65910942700471],[-58.47057138882731,-34.65843091443367],[-58.47251602641476,-34.66277676243772],[-58.47881829373255,-34.657848560507574],[-58.485945451344016,-34.66245218909218],[-58.48895242145443,-34.66335244324564],[-58.49703952515368,-34.67118424077124],[-58.49912702067697,-34.67263991821396],[-58.50252527504022,-34.674512432484015],[-58.52920705002191,-34.65430347405725],[-58.53035752579122,-34.63480022662674],[-58.5282052132353,-34.634847236168326],[-58.524299104116515,-34.634475586034455],[-58.52068660950893,-34.63382592736448],[-58.52074658179306,-34.63322429318182],[-58.52023989015835,-34.63280211033947],[-58.51925301107606,-34.63301496355282]]]}},{"type":"Feature","properties":{"comuna":10},"geometry":{"type":"Polygon","coordinates":[[[-58.48833771645412,-34.62016536494035],[-58.482743193734414,-34.62463474854925],[-58.47780801107838,-34.62238921186758],[-58.47130386272256,-34.636659753938936],[-58.47349312585017,-34.637312906116335],[-58.476073061293455,-34.63893922752052],[-58.478546192563456,-34.63699885547769],[-58.49530206457031,-34.644852439732254],[-58.49713742592192,-34.64341397409885],[-58.50229906905262,-34.64582266350144],[-58.50982153516651,-34.640013005499306],[-58.51050891943808,-34.63737563432314],[-58.50567176664867,-34.63672260169123],[-58.50681882923088,-34.635817173289944],[-58.50765103216557,-34.635895889023416],[-58.50882986433573,-34.635558197559256],[-58.513322146500286,-34.63366972917707],[-58.51486319473526,-34.63320792677432],[-58.51974561069824,-34.63298860899282],[-58.52023989015835,-34.63280211033947],[-58.52074658179306,-34.63322429318182],[-58.52068660950893,-34.63382592736448],[-58.524299104116515,-34.634475586034455],[-58.5282052132353,-34.634847236168326],[-58.53035752579122,-34.63480022662674],[-58.53151730936994,-34.61549898106118],[-58.5294676849028,-34.61090106159131],[-58.52505931336877,-34.61396792747937],[-58.51694927550724,-34.62022036334769],[-58.513046049005155,-34.616736904702016],[-58.500192416685685,-34.60913108464406],[-58.49557308272514,-34.61439626909074],[-58.48833771645412,-34.62016536494035]]]}},{"type":"Feature","properties":{"comuna":11},"geometry":{"type":"Polygon","coordinates":[[[-58.498384938980664,-34.59637325618735],[-58.49717523922214,-34.59682297177076],[-58.483456873969345,-34.59776357440074],[-58.478832163758454,-34.59967637826257],[-58.47639330714976,-34.60020498085571],[-58.47749970818132,-34.600830501972816],[-58.47401769558466,-34.605316418353674],[-58.46891355826054,-34.60186572269597],[-58.458475643600124,-34.6044970632697],[-58.46270615195231,-34.60737818546292],[-58.459449971836904,-34.61389068145688],[-58.464539949842525,-34.61579273275089],[-58.468636408887924,-34.61756665932689],[-58.47879986222605,-34.62291536360157],[-58.482743193734414,-34.62463474854925],[-58.49557308272514,-34.61439626909074],[-58.500192416685685,-34.60913108464406],[-58.513046049005155,-34.616736904702016],[-58.51694927550724,-34.62022036334769],[-58.52505931336877,-34.61396792747937],[-58.5294676849028,-34.61090106159131],[-58.515535768574196,-34.58127414707184],[-58.51490250172234,-34.58136836388742],[-58.51381334707973,-34.582522114469214],[-58.50308343148195,-34.59438790964244],[-58.50354366270086,-34.59445578824522],[-58.498384938980664,-34.59637325618735]]]}},{"type":"Feature","properties":{"comuna":12},"geometry":{"type":"Polygon","coordinates":[[[-58.50331123523567,-34.59386184024049],[-58.50347172005461,-34.593959253913994],[-58.51451630813752,-34.58175028280111],[-58.51497021278334,-34.58132249416606],[-58.515535768574196,-34.58127414707184],[-58.500551668790834,-34.549495920968496],[-58.47595455466846,-34.53863739298882],[-58.46819097058801,-34.54894654457668],[-58.47443734115173,-34.55242741425036],[-58.4708736035147,-34.55703652642951],[-58.46703884337079,-34.56132137710532],[-58.467685559876344,-34.561693617501696],[-58.466491862186054,-34.56219648199534],[-58.47336982768101,-34.56666768335338],[-58.46808280219983,-34.57291482378605],[-58.488794156181385,-34.584824030446214],[-58.50331123523567,-34.59386184024049]]]}},{"type":"Feature","properties":{"comuna":13},"geometry":{"type":"Polygon","coordinates":[[[-58.45462410795005,-34.52860393480279],[-58.45404996228834,-34.52930531075897],[-58.45195093067193,-34.53002073233169],[-58.45171998987577,-34.53063138767528],[-58.45496648619892,-34.53527636720969],[-58.45882203224351,-34.5371327693483],[-58.4585597087675,-34.53732575059548],[-58.45386545717745,-34.535044987740655],[-58.45206123850385,-34.531999490612634],[-58.45177030523751,-34.53171052690886],[-58.45136365920483,-34.53171744765763],[-58.45079399183235,-34.53216245266208],[-58.44996447156508,-34.535086292029625],[-58.45075318462007,-34.53567334026316],[-58.45300342510745,-34.53575093054585],[-58.45407181828169,-34.536539766242264],[-58.45483617470599,-34.537446594462054],[-58.4546295261159,-34.53811973945052],[-58.45408617314288,-34.53879108866282],[-58.45217041798593,-34.53956419510006],[-58.45119491811977,-34.5381489078883],[-58.449880080157484,-34.53736245066019],[-58.45003224195553,-34.536120734024166],[-58.44906714077152,-34.53555990218353],[-58.448800336686844,-34.535817431570734],[-58.449395178824744,-34.53632177623105],[-58.448567984279904,-34.53740071123808],[-58.447634551916195,-34.53649911632533],[-58.44638441809379,-34.53600964688377],[-58.44366433994528,-34.536335397750456],[-58.443863687174854,-34.53614484618917],[-58.442288622886885,-34.53730122794152],[-58.442289587779236,-34.5370332702859],[-58.44176501110901,-34.53790533038178],[-58.441562299555464,-34.53787072996937],[-58.441584261129016,-34.537626475622886],[-58.44132724413364,-34.53857648365801],[-58.44112149304502,-34.53858301159086],[-58.4410779699716,-34.53834045817414],[-58.440784519721525,-34.540304720119714],[-58.44032121710047,-34.54020947962583],[-58.44025715920719,-34.539209149983634],[-58.44021450104488,-34.53983867822916],[-58.43923700376901,-34.54013637384451],[-58.43740215276143,-34.54000050886235],[-58.43756043932938,-34.5398024158173],[-58.435888548156896,-34.54061234862644],[-58.434944154182155,-34.54190938533122],[-58.43420302443965,-34.54186596482963],[-58.43420585115423,-34.54202606146862],[-58.434920928280626,-34.54200207229259],[-58.434624119666594,-34.54258212160814],[-58.43187689030702,-34.54419976188775],[-58.43004895936123,-34.54687689740354],[-58.429495996518405,-34.54665800086476],[-58.42993052725654,-34.546969462546755],[-58.42973242274401,-34.54756323969351],[-58.43004200882397,-34.54804107350716],[-58.42963204866005,-34.54863059155689],[-58.42807022934368,-34.548088497614174],[-58.42706028990311,-34.548040483749205],[-58.42578524741085,-34.54874139480901],[-58.425913435681615,-34.54839958890156],[-58.42537114768071,-34.54908160072941],[-58.42514947120681,-34.54892020502903],[-58.42521518959096,-34.54913134902467],[-58.42495282906074,-34.549092653333446],[-58.424743215242046,-34.54935092068855],[-58.42512707340257,-34.54933202975143],[-58.42543371492382,-34.54970229120595],[-58.42570903159686,-34.550608220409714],[-58.426068434468036,-34.550885675373394],[-58.42669533178922,-34.55205414353826],[-58.429401564156706,-34.550956446287785],[-58.43098714459271,-34.55112501627761],[-58.4344261987988,-34.55305621010804],[-58.43465660855799,-34.55359987138236],[-58.434113729529074,-34.5539635506837],[-58.43598521801039,-34.55486569871285],[-58.437701753060935,-34.55615349440089],[-58.44016179630621,-34.557110204081724],[-58.44106131376858,-34.55790250180212],[-58.44138828018453,-34.55882208848241],[-58.440961011224445,-34.55991985273797],[-58.44033066344391,-34.560562003501744],[-58.439243583889954,-34.56129216198463],[-58.43798307694816,-34.56176290332876],[-58.43655308016807,-34.56193464408221],[-58.434960847039065,-34.56179829631029],[-58.43486149017645,-34.56209525140676],[-58.43540543361918,-34.562543094594],[-58.438435805905556,-34.56248159593368],[-58.44116517463695,-34.56214001582999],[-58.44253792836607,-34.5636951427871],[-58.44785691346942,-34.56671888363027],[-58.44904676119445,-34.567859827048814],[-58.44074720899485,-34.57211211395189],[-58.44397422449456,-34.57537012594294],[-58.44181675551114,-34.57682366633416],[-58.43994155147019,-34.57855265139006],[-58.44343418710488,-34.581802697596906],[-58.44445103343923,-34.583176475673376],[-58.451019792651415,-34.58048148591681],[-58.455401307744665,-34.57907626071809],[-58.45774560209267,-34.57844384329784],[-58.4602266652503,-34.5783011108979],[-58.463188835027395,-34.575111026455005],[-58.46736584353381,-34.57250216497175],[-58.46808280219982,-34.57291482378605],[-58.473369827681005,-34.56666768335336],[-58.466491862186054,-34.56219648199534],[-58.467685559876344,-34.561693617501696],[-58.46703884337077,-34.56132137710532],[-58.47087360351467,-34.557036526429535],[-58.47443734115173,-34.55242741425036],[-58.46819097058801,-34.54894654457668],[-58.47595455466846,-34.53863739298881],[-58.46379760243491,-34.53326774829826],[-58.46107289342538,-34.53013796743442],[-58.45950666937961,-34.52783738241708],[-58.45929878847121,-34.52720641395445],[-58.45862476200739,-34.526709704738195],[-58.45761856629678,-34.5264980379644],[-58.456719458022626,-34.52674828843891],[-58.455558958383456,-34.52745140511188],[-58.45462410795005,-34.52860393480279]]]}},{"type":"Feature","properties":{"comuna":14},"geometry":{"type":"Polygon","coordinates":[[[-58.40952422975303,-34.55721915385742],[-58.409246838189425,-34.5581350354637],[-58.409066027072015,-34.55815964967938],[-58.40921045859479,-34.558475802083706],[-58.40482368941713,-34.562666825442975],[-58.40475651667457,-34.56292781160494],[-58.404432050536215,-34.5628274041791],[-58.40391075999524,-34.563484736075736],[-58.398789758489,-34.56075319053227],[-58.398695647466596,-34.56092009336874],[-58.403936053308804,-34.56356643305699],[-58.40338122284385,-34.56388023113579],[-58.402605003947706,-34.56396129888846],[-58.40111744027096,-34.563338177498586],[-58.400876340649575,-34.56355775222872],[-58.40110581234354,-34.56404145105726],[-58.400713525195584,-34.56430598905434],[-58.399813103429786,-34.56372016132618],[-58.39921117582483,-34.56366546818596],[-58.39703979420499,-34.56500660495255],[-58.396752388115544,-34.56544674545297],[-58.39687887251301,-34.56583422800322],[-58.397503476426955,-34.566241078433],[-58.400190826728426,-34.56901765878399],[-58.39992623801226,-34.569187162138874],[-58.39750906192478,-34.56670200735361],[-58.39698334239346,-34.56667476841259],[-58.39651284678744,-34.566899597387994],[-58.39578633424462,-34.567739070039224],[-58.39521208141552,-34.5689622579415],[-58.394919878835836,-34.569257663466075],[-58.39456645369643,-34.56923459487596],[-58.39284439159741,-34.57223851937547],[-58.39521040516281,-34.57219633516647],[-58.40013108172107,-34.5693546362421],[-58.3997022573878,-34.570023478706126],[-58.39972018078613,-34.57081264566094],[-58.4026506816133,-34.574146009020055],[-58.40114888534915,-34.57574233895357],[-58.396564195981334,-34.578512233282034],[-58.40054799256822,-34.584477245354066],[-58.40194733042239,-34.58343181108031],[-58.40617642820399,-34.58346470960735],[-58.41008489098121,-34.589062491173905],[-58.414397287745764,-34.59405930920153],[-58.41600403600113,-34.597859933549024],[-58.423370464395774,-34.597753095799106],[-58.42695332551264,-34.5962157706669],[-58.42935179755998,-34.594750734873536],[-58.44478808996422,-34.58451915727811],[-58.44445103343923,-34.583176475673376],[-58.44343418710488,-34.581802697596906],[-58.43994155147019,-34.57855265139006],[-58.44181675551114,-34.57682366633416],[-58.44397422449456,-34.57537012594294],[-58.44074720899485,-34.57211211395189],[-58.44904676119445,-34.567859827048814],[-58.44785691346942,-34.56671888363027],[-58.44253792836607,-34.5636951427871],[-58.44116517463695,-34.56214001582999],[-58.438435805905556,-34.56248159593368],[-58.43540543361918,-34.562543094594],[-58.43486149017645,-34.56209525140676],[-58.434960847039065,-34.56179829631029],[-58.43655308016807,-34.56193464408221],[-58.43798307694816,-34.56176290332876],[-58.439243583889954,-34.56129216198463],[-58.44033066344391,-34.560562003501744],[-58.440961011224445,-34.55991985273797],[-58.44138828018453,-34.55882208848241],[-58.44106131376858,-34.55790250180212],[-58.44016179630621,-34.557110204081724],[-58.437701753060935,-34.55615349440089],[-58.43598521801039,-34.55486569871285],[-58.434113729529074,-34.5539635506837],[-58.43465660855799,-34.55359987138236],[-58.4344261987988,-34.55305621010804],[-58.43098714459271,-34.55112501627761],[-58.429401564156706,-34.550956446287785],[-58.42669533178922,-34.55205414353826],[-58.4265005421999,-34.55180954354172],[-58.425668022697465,-34.55197218736329],[-58.424323232237285,-34.549364839056665],[-58.42473594055341,-34.54902164123396],[-58.42418071379557,-34.54927451314631],[-58.425704542147976,-34.55216363570151],[-58.42040353560577,-34.55361714220687],[-58.416077928503086,-34.55432900290282],[-58.41595928518177,-34.55421945485207],[-58.41587186701431,-34.55438649630261],[-58.414182408561246,-34.55488592554819],[-58.414055575661855,-34.55478427457651],[-58.41405139587492,-34.554931028274616],[-58.411180473334376,-34.556252892534054],[-58.41094240325543,-34.55620763518065],[-58.41097437264238,-34.556360048669596],[-58.41017047975179,-34.556735364757614],[-58.409522256094505,-34.55662862862211],[-58.40952422975303,-34.55721915385742]]]}},{"type":"Feature","properties":{"comuna":15},"geometry":{"type":"Polygon","coordinates":[[[-58.42602719498851,-34.59661930174857],[-58.423370464395774,-34.597753095799106],[-58.42678829291573,-34.5979494812089],[-58.42777627037006,-34.598334144887495],[-58.42943185651599,-34.599131389417884],[-58.432243441632785,-34.60213894439448],[-58.43920415657378,-34.605587963253505],[-58.44624963503945,-34.607620731773444],[-58.46891355826054,-34.60186572269597],[-58.47401769558464,-34.605316418353674],[-58.47749970818131,-34.600830501972816],[-58.47639330714973,-34.60020498085571],[-58.478832163758454,-34.59967637826255],[-58.483456873969345,-34.59776357440074],[-58.49717523922212,-34.596822971770756],[-58.50354366270086,-34.59445578824522],[-58.503083431481926,-34.594387909642435],[-58.50347172005461,-34.593959253913994],[-58.488794156181385,-34.584824030446214],[-58.46736584353381,-34.57250216497175],[-58.463188835027395,-34.575111026455005],[-58.4602266652503,-34.5783011108979],[-58.45774560209267,-34.57844384329784],[-58.455401307744665,-34.57907626071809],[-58.451019792651415,-34.58048148591681],[-58.444402238746825,-34.583197455104525],[-58.44478808996422,-34.58451915727811],[-58.444588211785494,-34.58467138375304],[-58.43028520406814,-34.59416872742226],[-58.42602719498851,-34.59661930174857]]]}}]}