{"type":"FeatureCollection","features":[{"type":"Feature","properties":{"comuna":1,"etiqueta":"Comuna 1"},"geometry":{"type":"Point","coordinates":[-58.371701,-34.606376]}},{"type":"Feature","properties":{"comuna":2,"etiqueta":"Comuna 2"},"geometry":{"type":"Point","coordinates":[-58.394691,-34.585564]}},{"type":"Feature","properties":{"comuna":3,"etiqueta":"Comuna 3"},"geometry":{"type":"Point","coordinates":[-58.402689,-34.61383]}},{"type":"Feature","properties":{"comuna":4,"etiqueta":"Comuna 4"},"geometry":{"type":"Point","coordinates":[-58.388804,-34.642257]}},{"type":"Feature","properties":{"comuna":5,"etiqueta":"Comuna 5"},"geometry":{"type":"Point","coordinates":[-58.420609,-34.617357]}},{"type":"Feature","properties":{"comuna":6,"etiqueta":"Comuna 6"},"geometry":{"type":"Point","coordinates":[-58.443605,-34.61683]}},{"type":"Feature","properties":{"comuna":7,"etiqueta":"Comuna 7"},"geometry":{"type":"Point","coordinates":[-58.451924,-34.636541]}},{"type":"Feature","properties":{"comuna":8,"etiqueta":"Comuna 8"},"geometry":{"type":"Point","coordinates":[-58.462147,-34.674476]}},{"type":"Feature","properties":{"comuna":9,"etiqueta":"Comuna 9"},"geometry":{"type":"Point","coordinates":[-58.499096,-34.651724]}},{"type":"Feature","properties":{"comuna":10,"etiqueta":"Comuna 10"},"geometry":{"type":"Point","coordinates":[-58.502871,-34.627824]}},{"type":"Feature","properties":{"comuna":11,"etiqueta":"Comuna 11"},"geometry":{"type":"Point","coordinates":[-58.496877,-34.606102]}},{"type":"Feature","properties":{"comuna":12,"etiqueta":"Comuna 12"},"geometry":{"type":"Point","coordinates":[-58.49043,-34.566324]}},{"type":"Feature","properties":{"comuna":13,"etiqueta":"Comuna 13"},"geometry":{"type":"Point","coordinates":[-58.454025,-34.554329]}},{"type":"Feature","properties":{"comuna":14,"etiqueta":"Comuna 14"},"geometry":{"type":"Point","coordinates":[-58.4223,-34.573776]}},{"type":"Feature","properties":{"comuna":15,"etiqueta":"Comuna 15"},"geometry":{"type":"Point","coordinates":[-58.462811,-34.591871]}}]}