{"type":"FeatureCollection","features":[{"type":"Feature","properties":{"etiqueta":"Almirante Brown"},"geometry":{"type":"Point","coordinates":[-58.367373,-34.835619]}},{"type":"Feature","properties":{"etiqueta":"Avellaneda"},"geometry":{"type":"Point","coordinates":[-58.341145,-34.678199]}},{"type":"Feature","properties":{"etiqueta":"Berazategui"},"geometry":{"type":"Point","coordinates":[-58.155462,-34.818245]}},{"type":"Feature","properties":{"etiqueta":"Esteban Echeverría"},"geometry":{"type":"Point","coordinates":[-58.476948,-34.831214]}},{"type":"Feature","properties":{"etiqueta":"Ezeiza"},"geometry":{"type":"Point","coordinates":[-58.564701,-34.876097]}},{"type":"Feature","properties":{"etiqueta":"Florencio Varela"},"geometry":{"type":"Point","coordinates":[-58.258555,-34.877745]}},{"type":"Feature","properties":{"etiqueta":"Lanús"},"geometry":{"type":"Point","coordinates":[-58.394697,-34.705654]}},{"type":"Feature","properties":{"etiqueta":"Lomas de Zamora"},"geometry":{"type":"Point","coordinates":[-58.424095,-34.754968]}},{"type":"Feature","properties":{"etiqueta":"Quilmes"},"geometry":{"type":"Point","coordinates":[-58.276858,-34.734971]}}]}