{"type":"FeatureCollection","features":[{"type":"Feature","properties":{"etiqueta":"General San Martín"},"geometry":{"type":"MultiPolygon","coordinates":[[[[-58.553764,-34.530205],[-58.537781,-34.544164],[-58.533597,-34.539701],[-58.529811,-34.537332],[-58.527575,-34.541675],[-58.529017,-34.542373],[-58.526614,-34.545029],[-58.524613,-34.55044],[-58.513182,-34.565895],[-58.50996,-34.569205],[-58.522972,-34.597563],[-58.538666,-34.595144],[-58.539358,-34.595575],[-58.543956,-34.595109],[-58.544764,-34.594234],[-58.562314,-34.591405],[-58.604581,-34.55776],[-58.619241,-34.54673],[-58.617681,-34.546904],[-58.616925,-34.545771],[-58.615266,-34.545043],[-58.614565,-34.544106],[-58.612793,-34.543034],[-58.608488,-34.535929],[-58.60587,-34.53403],[-58.604459,-34.526162],[-58.603101,-34.523281],[-58.601517,-34.521241],[-58.601947,-34.518394],[-58.601662,-34.516843],[-58.603139,-34.51247],[-58.602477,-34.511091],[-58.602549,-34.50891],[-58.601466,-34.505341],[-58.601343,-34.503232],[-58.599897,-34.501561],[-58.598342,-34.498168],[-58.599025,-34.495972],[-58.600821,-34.493599],[-58.600303,-34.490354],[-58.553764,-34.530205]]]]}},{"type":"Feature","properties":{"etiqueta":"José C. Paz"},"geometry":{"type":"MultiPolygon","coordinates":[[[[-58.78948,-34.473851],[-58.784541,-34.476066],[-58.777316,-34.482308],[-58.771579,-34.488467],[-58.760678,-34.495146],[-58.747425,-34.501061],[-58.72919,-34.508182],[-58.723825,-34.515511],[-58.720899,-34.518234],[-58.724365,-34.521207],[-58.728602,-34.525923],[-58.753224,-34.548878],[-58.753774,-34.548478],[-58.756336,-34.550846],[-58.761491,-34.547114],[-58.766136,-34.551406],[-58.768134,-34.549936],[-58.776028,-34.557058],[-58.823584,-34.508215],[-58.819157,-34.501693],[-58.818734,-34.499533],[-58.819709,-34.496426],[-58.815871,-34.494067],[-58.815653,-34.49301],[-58.814457,-34.492559],[-58.813519,-34.491148],[-58.812087,-34.486823],[-58.811153,-34.485744],[-58.811751,-34.485009],[-58.811604,-34.48417],[-58.812463,-34.483222],[-58.812132,-34.477872],[-58.813131,-34.474492],[-58.813824,-34.474034],[-58.81406,-34.472049],[-58.815006,-34.470705],[-58.813779,-34.464134],[-58.815809,-34.461408],[-58.816087,-34.460275],[-58.818789,-34.458215],[-58.821418,-34.45531],[-58.821687,-34.451956],[-58.816935,-34.455908],[-58.815019,-34.456536],[-58.80544,-34.463925],[-58.78948,-34.473851]]]]}},{"type":"Feature","properties":{"etiqueta":"Malvinas Argentinas"},"geometry":{"type":"MultiPolygon","coordinates":[[[[-58.684803,-34.466151],[-58.677703,-34.475146],[-58.646591,-34.501384],[-58.68414,-34.526661],[-58.688507,-34.530014],[-58.689134,-34.530159],[-58.693757,-34.52635],[-58.694452,-34.526289],[-58.701269,-34.532748],[-58.71986,-34.519201],[-58.723825,-34.515511],[-58.72919,-34.508182],[-58.747425,-34.501061],[-58.760678,-34.495146],[-58.771579,-34.488467],[-58.777316,-34.482308],[-58.784541,-34.476066],[-58.771196,-34.468339],[-58.769464,-34.465742],[-58.770188,-34.464836],[-58.764695,-34.467244],[-58.756207,-34.462412],[-58.752016,-34.467763],[-58.744117,-34.46355],[-58.744337,-34.459981],[-58.730774,-34.453179],[-58.705563,-34.439311],[-58.684803,-34.466151]]]]}},{"type":"Feature","properties":{"etiqueta":"San Fernando"},"geometry":{"type":"MultiPolygon","coordinates":[[[[-58.363524,-34.022061],[-58.349928,-34.036568],[-58.344986,-34.038413],[-58.35084,-34.044821],[-58.35084,-34.048138],[-58.353554,-34.051907],[-58.35319,-34.052197],[-58.352089,-34.051334],[-58.349472,-34.048568],[-58.348639,-34.049014],[-58.348401,-34.051305],[-58.350364,-34.054636],[-58.350899,-34.056837],[-58.351732,-34.057461],[-58.355995,-34.054238],[-58.356871,-34.055073],[-58.358228,-34.059596],[-58.360092,-34.060908],[-58.358976,-34.061675],[-58.359047,-34.062246],[-58.361367,-34.063246],[-58.361367,-34.06371],[-58.363009,-34.064566],[-58.364724,-34.063956],[-58.366028,-34.064697],[-58.364197,-34.065308],[-58.362671,-34.069885],[-58.362122,-34.073486],[-58.363586,-34.079102],[-58.361572,-34.090088],[-58.364502,-34.103577],[-58.365833,-34.112798],[-58.360946,-34.118088],[-58.359637,-34.120705],[-58.359875,-34.122074],[-58.363742,-34.126535],[-58.366775,-34.132365],[-58.368578,-34.13733],[-58.36792,-34.139404],[-58.368103,-34.141785],[-58.36969,-34.142395],[-58.371094,-34.144775],[-58.370728,-34.147278],[-58.368713,-34.151916],[-58.369202,-34.153381],[-58.373291,-34.158081],[-58.373108,-34.161194],[-58.371094,-34.171692],[-58.365804,-34.176501],[-58.365625,-34.17549],[-58.365268,-34.17549],[-58.363186,-34.177037],[-58.362294,-34.178286],[-58.357654,-34.180784],[-58.353728,-34.185603],[-58.352836,-34.18828],[-58.352657,-34.193752],[-58.351765,-34.199523],[-58.353966,-34.204638],[-58.356286,-34.206839],[-58.35813,-34.207137],[-58.35926,-34.206661],[-58.360153,-34.207137],[-58.359855,-34.208386],[-58.360747,-34.210409],[-58.362116,-34.211777],[-58.363424,-34.21136],[-58.363841,-34.21255],[-58.364376,-34.21255],[-58.367172,-34.210171],[-58.368064,-34.21023],[-58.36854,-34.214097],[-58.375322,-34.213442],[-58.385434,-34.209873],[-58.385732,-34.211598],[-58.383888,-34.214454],[-58.38359,-34.218975],[-58.383055,-34.220402],[-58.380378,-34.223496],[-58.380378,-34.224447],[-58.385375,-34.225221],[-58.389658,-34.224269],[-58.393465,-34.224388],[-58.394655,-34.225399],[-58.396439,-34.225756],[-58.39638,-34.226292],[-58.393584,-34.226648],[-58.392573,-34.228017],[-58.392394,-34.22992],[-58.393525,-34.230158],[-58.400901,-34.228017],[-58.401496,-34.230277],[-58.397213,-34.232181],[-58.394,-34.233013],[-58.389638,-34.235216],[-58.388647,-34.240271],[-58.389004,-34.243245],[-58.390015,-34.244732],[-58.391383,-34.245982],[-58.393346,-34.246933],[-58.393822,-34.248599],[-58.395012,-34.249194],[-58.396023,-34.250622],[-58.396796,-34.250384],[-58.397034,-34.252941],[-58.398105,-34.254726],[-58.401198,-34.257819],[-58.402685,-34.258593],[-58.403697,-34.2577],[-58.404351,-34.2577],[-58.40679,-34.259723],[-58.40911,-34.258295],[-58.410776,-34.259009],[-58.412203,-34.26121],[-58.414307,-34.263123],[-58.416687,-34.264404],[-58.420776,-34.265198],[-58.426209,-34.26532],[-58.429382,-34.264893],[-58.431702,-34.265625],[-58.434692,-34.265198],[-58.436279,-34.263],[-58.436829,-34.263306],[-58.437195,-34.266418],[-58.442688,-34.266418],[-58.445984,-34.265503],[-58.451477,-34.265808],[-58.452698,-34.263306],[-58.453674,-34.264893],[-58.453613,-34.267883],[-58.456299,-34.271179],[-58.462708,-34.273804],[-58.469604,-34.274475],[-58.477999,-34.273126],[-58.49061,-34.269616],[-58.494715,-34.269497],[-58.4987,-34.267594],[-58.49995,-34.267534],[-58.500009,-34.268665],[-58.496618,-34.269735],[-58.495667,-34.274137],[-58.491146,-34.276695],[-58.487457,-34.278063],[-58.486863,-34.279551],[-58.487339,-34.280502],[-58.48829,-34.281097],[-58.493882,-34.283001],[-58.498641,-34.285797],[-58.504352,-34.293054],[-58.509652,-34.296196],[-58.512779,-34.296578],[-58.525628,-34.294865],[-58.530339,-34.294865],[-58.536764,-34.295721],[-58.540048,-34.295721],[-58.539706,-34.298376],[-58.549102,-34.297106],[-58.570004,-34.287941],[-58.597238,-34.277653],[-58.608303,-34.274427],[-58.6153,-34.272929],[-58.649515,-34.266598],[-58.66325,-34.261763],[-58.712152,-34.248902],[-58.711223,-34.237611],[-58.709548,-34.228773],[-58.710984,-34.221199],[-58.710837,-34.219097],[-58.70164,-34.213691],[-58.698639,-34.209571],[-58.694356,-34.20059],[-58.693823,-34.193922],[-58.695023,-34.186898],[-58.693564,-34.181951],[-58.693019,-34.176117],[-58.6914,-34.172432],[-58.705641,-34.171467],[-58.719648,-34.168463],[-58.728898,-34.169216],[-58.733221,-34.168905],[-58.738087,-34.168103],[-58.7467,-34.165507],[-58.747289,-34.163855],[-58.746364,-34.155959],[-58.74679,-34.154412],[-58.752477,-34.15371],[-58.758971,-34.151522],[-58.762434,-34.147839],[-58.764556,-34.144121],[-58.767491,-34.133392],[-58.768427,-34.13177],[-58.76729,-34.130298],[-58.764295,-34.128043],[-58.76385,-34.126474],[-58.769194,-34.12317],[-58.773051,-34.119824],[-58.785395,-34.107959],[-58.792819,-34.09929],[-58.799081,-34.094594],[-58.80255,-34.091149],[-58.804131,-34.089273],[-58.80475,-34.087515],[-58.804731,-34.081865],[-58.804028,-34.080777],[-58.800349,-34.079719],[-58.79597,-34.079289],[-58.793145,-34.078259],[-58.763092,-34.064568],[-58.678849,-34.027355],[-58.6753,-34.025467],[-58.670715,-34.028503],[-58.66047,-34.03335],[-58.650476,-34.036682],[-58.637865,-34.039299],[-58.630489,-34.039775],[-58.619305,-34.038347],[-58.60717,-34.037871],[-58.603363,-34.036682],[-58.595987,-34.035492],[-58.592655,-34.033826],[-58.58861,-34.032636],[-58.578617,-34.027164],[-58.570526,-34.025974],[-58.561009,-34.027164],[-58.553156,-34.026688],[-58.539593,-34.021691],[-58.533645,-34.020501],[-58.52002,-34.016296],[-58.513794,-34.015381],[-58.506714,-34.013],[-58.499517,-34.008539],[-58.492506,-34.006461],[-58.477295,-34.002625],[-58.474442,-34.002205],[-58.463196,-34.001892],[-58.433561,-34.005966],[-58.409437,-34.008539],[-58.398266,-34.010519],[-58.378925,-34.012226],[-58.375538,-34.013314],[-58.370844,-34.016184],[-58.368229,-34.017916],[-58.363524,-34.022061]]],[[[-58.54505,-34.430729],[-58.53952,-34.43284],[-58.533426,-34.439058],[-58.52839,-34.442159],[-58.523514,-34.443781],[-58.516165,-34.443321],[-58.519475,-34.44852],[-58.574846,-34.475591],[-58.577922,-34.476027],[-58.57876,-34.477592],[-58.584716,-34.480069],[-58.58614,-34.48238],[-58.594226,-34.4864],[-58.600303,-34.490354],[-58.59901,-34.486657],[-58.599057,-34.485646],[-58.600731,-34.484371],[-58.602354,-34.484161],[-58.604251,-34.482941],[-58.606242,-34.481122],[-58.606471,-34.480382],[-58.605805,-34.479717],[-58.604113,-34.479498],[-58.601636,-34.478249],[-58.602083,-34.47714],[-58.601241,-34.474852],[-58.59927,-34.474414],[-58.599188,-34.472402],[-58.598609,-34.471284],[-58.60026,-34.469224],[-58.599022,-34.466901],[-58.598758,-34.463556],[-58.59668,-34.462381],[-58.594462,-34.460066],[-58.595153,-34.456721],[-58.593472,-34.452482],[-58.595171,-34.448343],[-58.580396,-34.445],[-58.579511,-34.444465],[-58.560342,-34.430001],[-58.559272,-34.42808],[-58.558432,-34.424402],[-58.557947,-34.424092],[-58.551687,-34.427985],[-58.54505,-34.430729]]],[[[-58.285584,-34.22627],[-58.287082,-34.229586],[-58.29137,-34.231044],[-58.294371,-34.236023],[-58.300843,-34.24002],[-58.300843,-34.23688],[-58.302747,-34.230883],[-58.303984,-34.228885],[-58.305126,-34.228694],[-58.305126,-34.23431],[-58.305887,-34.23707],[-58.30741,-34.237355],[-58.307578,-34.236426],[-58.308889,-34.236322],[-58.31017,-34.243637],[-58.311503,-34.245065],[-58.315405,-34.245636],[-58.328825,-34.24002],[-58.330158,-34.236784],[-58.329682,-34.227267],[-58.330634,-34.218129],[-58.333394,-34.211467],[-58.333394,-34.208707],[-58.324864,-34.193966],[-58.321651,-34.190575],[-58.311598,-34.187958],[-58.30722,-34.192336],[-58.304269,-34.19443],[-58.299035,-34.197571],[-58.293705,-34.19995],[-58.289612,-34.202711],[-58.285011,-34.2066],[-58.283873,-34.208942],[-58.282664,-34.21023],[-58.279999,-34.21061],[-58.279523,-34.213085],[-58.276858,-34.216036],[-58.276287,-34.218701],[-58.276953,-34.219843],[-58.279047,-34.220794],[-58.281617,-34.223555],[-58.283425,-34.224221],[-58.285584,-34.22627]]],[[[-58.242776,-34.248729],[-58.245453,-34.251763],[-58.246286,-34.253607],[-58.246464,-34.256582],[-58.245453,-34.259318],[-58.245751,-34.26021],[-58.247238,-34.261697],[-58.248427,-34.261995],[-58.251997,-34.264374],[-58.254673,-34.263601],[-58.258183,-34.258307],[-58.259789,-34.257414],[-58.263418,-34.253131],[-58.264667,-34.250811],[-58.264965,-34.249205],[-58.265976,-34.248967],[-58.265916,-34.254381],[-58.26669,-34.256046],[-58.269129,-34.258069],[-58.265203,-34.263898],[-58.262883,-34.264969],[-58.261514,-34.268955],[-58.262466,-34.270085],[-58.263775,-34.270085],[-58.265797,-34.269431],[-58.267166,-34.26836],[-58.270616,-34.269609],[-58.272579,-34.26949],[-58.272698,-34.270382],[-58.276565,-34.269133],[-58.278171,-34.268003],[-58.276565,-34.261697],[-58.276624,-34.259913],[-58.274958,-34.251585],[-58.274364,-34.246647],[-58.274364,-34.240937],[-58.272995,-34.234096],[-58.270304,-34.228226],[-58.26795,-34.225741],[-58.26633,-34.226323],[-58.259908,-34.232252],[-58.254436,-34.236297],[-58.247059,-34.243376],[-58.242776,-34.248729]]],[[[-58.476939,-34.303362],[-58.473898,-34.305574],[-58.474872,-34.307313],[-58.47389,-34.308169],[-58.473837,-34.308919],[-58.474207,-34.309448],[-58.474948,-34.309492],[-58.477263,-34.308963],[-58.476596,-34.310248],[-58.478428,-34.309201],[-58.47712,-34.310843],[-58.4775,-34.31139],[-58.479119,-34.311818],[-58.477405,-34.312104],[-58.474883,-34.313531],[-58.475073,-34.313949],[-58.474193,-34.314674],[-58.475216,-34.31534],[-58.474241,-34.31553],[-58.473146,-34.315316],[-58.472799,-34.314869],[-58.471814,-34.31494],[-58.471228,-34.315297],[-58.471707,-34.315686],[-58.4706,-34.316101],[-58.46991,-34.315887],[-58.467873,-34.316696],[-58.468116,-34.31741],[-58.471599,-34.318723],[-58.472727,-34.320537],[-58.474726,-34.321464],[-58.476568,-34.320708],[-58.475112,-34.318267],[-58.47504,-34.317153],[-58.476668,-34.319437],[-58.478952,-34.320465],[-58.48487,-34.318877],[-58.487364,-34.317684],[-58.50665,-34.303431],[-58.50826,-34.302049],[-58.5087,-34.300844],[-58.508031,-34.299297],[-58.504645,-34.296727],[-58.502365,-34.295192],[-58.500319,-34.294887],[-58.493942,-34.29818],[-58.491905,-34.298571],[-58.482278,-34.298936],[-58.479809,-34.30052],[-58.476939,-34.303362]]],[[[-58.332002,-34.23168],[-58.33218,-34.238581],[-58.332656,-34.240782],[-58.333608,-34.241972],[-58.334025,-34.244232],[-58.333906,-34.246671],[-58.332537,-34.250359],[-58.332954,-34.251549],[-58.334976,-34.251133],[-58.34265,-34.245362],[-58.344494,-34.242864],[-58.347885,-34.236439],[-58.349015,-34.236558],[-58.351038,-34.237808],[-58.352346,-34.236975],[-58.352584,-34.232275],[-58.350086,-34.233703],[-58.351573,-34.23168],[-58.352227,-34.229361],[-58.347706,-34.232989],[-58.34842,-34.231383],[-58.351097,-34.228587],[-58.351514,-34.22716],[-58.351157,-34.224423],[-58.350324,-34.222639],[-58.348939,-34.220505],[-58.340677,-34.215084],[-58.338427,-34.213002],[-58.336999,-34.212883],[-58.335214,-34.21431],[-58.332299,-34.218356],[-58.331348,-34.223114],[-58.332002,-34.23168]]],[[[-58.320007,-34.176535],[-58.318202,-34.176604],[-58.316829,-34.178435],[-58.317112,-34.181309],[-58.325347,-34.188363],[-58.326317,-34.190133],[-58.330704,-34.194809],[-58.3313,-34.194621],[-58.334471,-34.195255],[-58.33576,-34.193917],[-58.336654,-34.191904],[-58.335112,-34.189048],[-58.335169,-34.186707],[-58.33574,-34.185393],[-58.335283,-34.180996],[-58.336254,-34.175914],[-58.335626,-34.174829],[-58.333113,-34.173515],[-58.331386,-34.169879],[-58.330172,-34.165525],[-58.326841,-34.160528],[-58.32558,-34.160504],[-58.32489,-34.161028],[-58.324818,-34.161551],[-58.325675,-34.162146],[-58.323986,-34.162789],[-58.324509,-34.16286],[-58.322034,-34.169746],[-58.322434,-34.171117],[-58.321121,-34.172316],[-58.320493,-34.172373],[-58.320949,-34.173344],[-58.320007,-34.176535]]],[[[-58.253582,-34.204865],[-58.250649,-34.212805],[-58.251433,-34.214079],[-58.251321,-34.21515],[-58.252025,-34.215706],[-58.253267,-34.216077],[-58.254447,-34.215302],[-58.254574,-34.216458],[-58.254002,-34.217029],[-58.254336,-34.218457],[-58.2561,-34.218662],[-58.256049,-34.219171],[-58.250814,-34.219076],[-58.250291,-34.220979],[-58.249719,-34.221503],[-58.250909,-34.224215],[-58.251861,-34.228498],[-58.253336,-34.229926],[-58.258238,-34.226976],[-58.263758,-34.221979],[-58.265567,-34.216363],[-58.265234,-34.214222],[-58.267327,-34.21089],[-58.266852,-34.208844],[-58.261284,-34.205275],[-58.257714,-34.204799],[-58.256667,-34.204799],[-58.256192,-34.205275],[-58.254101,-34.204606],[-58.253582,-34.204865]]],[[[-58.291087,-34.269871],[-58.293181,-34.269728],[-58.295799,-34.267158],[-58.295703,-34.266206],[-58.294894,-34.26535],[-58.294466,-34.261828],[-58.293895,-34.260924],[-58.294609,-34.257212],[-58.296417,-34.255737],[-58.295513,-34.254547],[-58.29418,-34.25093],[-58.29261,-34.249741],[-58.289945,-34.244934],[-58.288946,-34.242888],[-58.288041,-34.238938],[-58.2859,-34.237463],[-58.282331,-34.23732],[-58.281284,-34.240032],[-58.282283,-34.244077],[-58.282283,-34.25193],[-58.282854,-34.257117],[-58.284853,-34.259639],[-58.285805,-34.262352],[-58.287232,-34.262923],[-58.289564,-34.266492],[-58.290849,-34.266778],[-58.290659,-34.268729],[-58.291087,-34.269871]]],[[[-58.282664,-34.235559],[-58.285472,-34.236606],[-58.286328,-34.236273],[-58.288517,-34.238176],[-58.290897,-34.244934],[-58.293657,-34.249265],[-58.295085,-34.250121],[-58.300224,-34.251644],[-58.300986,-34.25093],[-58.3007,-34.245172],[-58.300129,-34.241841],[-58.29951,-34.240889],[-58.2938,-34.237034],[-58.290231,-34.232133],[-58.285472,-34.228706],[-58.284425,-34.226565],[-58.281807,-34.224947],[-58.279142,-34.222329],[-58.278095,-34.221663],[-58.277286,-34.221663],[-58.276477,-34.221901],[-58.276668,-34.225137],[-58.282664,-34.235559]]],[[[-58.476659,-34.285349],[-58.473651,-34.28573],[-58.467255,-34.285425],[-58.466208,-34.285749],[-58.465865,-34.286834],[-58.470015,-34.286396],[-58.470834,-34.286967],[-58.480199,-34.287862],[-58.480732,-34.288547],[-58.483816,-34.288471],[-58.483518,-34.288772],[-58.479901,-34.28902],[-58.479806,-34.289467],[-58.483375,-34.28961],[-58.48368,-34.289239],[-58.483765,-34.289714],[-58.485398,-34.290127],[-58.485453,-34.290793],[-58.48334,-34.291269],[-58.483055,-34.291764],[-58.484235,-34.292468],[-58.484444,-34.293591],[-58.485529,-34.293991],[-58.486253,-34.293572],[-58.485072,-34.295298],[-58.485064,-34.296317],[-58.485353,-34.297024],[-58.486816,-34.29756],[-58.490804,-34.297712],[-58.494362,-34.297033],[-58.498057,-34.29466],[-58.501011,-34.293403],[-58.500509,-34.291381],[-58.499428,-34.289673],[-58.495404,-34.28613],[-58.491311,-34.28425],[-58.488955,-34.283679],[-58.485196,-34.283512],[-58.481888,-34.28394],[-58.478924,-34.285082],[-58.476659,-34.285349]]],[[[-58.331114,-34.151814],[-58.332883,-34.153497],[-58.330886,-34.153014],[-58.330886,-34.153756],[-58.329573,-34.155127],[-58.32843,-34.15507],[-58.326489,-34.156554],[-58.325975,-34.157754],[-58.327174,-34.158724],[-58.328483,-34.162574],[-58.330553,-34.165263],[-58.331596,-34.169235],[-58.333331,-34.172407],[-58.334174,-34.173696],[-58.335854,-34.1742],[-58.336597,-34.173401],[-58.337453,-34.165806],[-58.338139,-34.163579],[-58.338082,-34.159809],[-58.338938,-34.160152],[-58.338766,-34.157296],[-58.340964,-34.154366],[-58.342104,-34.152285],[-58.342104,-34.151294],[-58.341162,-34.15055],[-58.335969,-34.149302],[-58.333342,-34.146275],[-58.331857,-34.146504],[-58.332028,-34.148274],[-58.330772,-34.150615],[-58.331114,-34.151814]]],[[[-58.356782,-34.119932],[-58.356127,-34.120705],[-58.355592,-34.120408],[-58.3547,-34.121122],[-58.352201,-34.127368],[-58.35262,-34.132163],[-58.353569,-34.132811],[-58.355832,-34.135907],[-58.35583,-34.138046],[-58.358239,-34.142864],[-58.359697,-34.141764],[-58.362968,-34.134923],[-58.363831,-34.134387],[-58.363504,-34.132276],[-58.364693,-34.133852],[-58.364545,-34.134863],[-58.365586,-34.136053],[-58.366627,-34.136053],[-58.366894,-34.13525],[-58.366656,-34.133376],[-58.363831,-34.127398],[-58.361005,-34.12475],[-58.359221,-34.121895],[-58.358685,-34.118921],[-58.357793,-34.11898],[-58.356782,-34.119932]]],[[[-58.233206,-34.253733],[-58.233599,-34.254054],[-58.235419,-34.253911],[-58.236632,-34.254304],[-58.23806,-34.255053],[-58.239416,-34.256909],[-58.24088,-34.264904],[-58.243414,-34.268223],[-58.244449,-34.268509],[-58.248197,-34.267831],[-58.249731,-34.266974],[-58.250231,-34.264619],[-58.249767,-34.264012],[-58.245841,-34.261728],[-58.244556,-34.2603],[-58.244449,-34.258729],[-58.24552,-34.255767],[-58.245127,-34.254232],[-58.244056,-34.251662],[-58.240844,-34.248022],[-58.240023,-34.247915],[-58.237453,-34.248664],[-58.235562,-34.249699],[-58.233277,-34.251413],[-58.232706,-34.252519],[-58.233492,-34.253483],[-58.233206,-34.253733]]],[[[-58.368621,-34.217081],[-58.367371,-34.218032],[-58.367699,-34.220769],[-58.36871,-34.22175],[-58.370257,-34.221661],[-58.372963,-34.22062],[-58.375521,-34.222048],[-58.376979,-34.222256],[-58.37448,-34.224279],[-58.374629,-34.225171],[-58.375164,-34.225528],[-58.376979,-34.225439],[-58.377811,-34.224606],[-58.37915,-34.224457],[-58.380072,-34.222464],[-58.38257,-34.219817],[-58.38266,-34.216159],[-58.383552,-34.212233],[-58.372963,-34.215177],[-58.368621,-34.217081]]],[[[-58.316714,-34.247444],[-58.315405,-34.249586],[-58.315167,-34.25369],[-58.315524,-34.255535],[-58.31713,-34.255475],[-58.31838,-34.254285],[-58.318855,-34.252501],[-58.320224,-34.251371],[-58.321532,-34.248991],[-58.323079,-34.248991],[-58.323436,-34.249824],[-58.327436,-34.24946],[-58.332656,-34.246076],[-58.332954,-34.245005],[-58.330753,-34.240187],[-58.329682,-34.241079],[-58.318677,-34.245898],[-58.316714,-34.247444]]],[[[-58.352908,-34.07663],[-58.352551,-34.077308],[-58.349696,-34.07663],[-58.349196,-34.077415],[-58.349589,-34.083055],[-58.34916,-34.085339],[-58.347661,-34.08823],[-58.347875,-34.0898],[-58.347233,-34.092656],[-58.347554,-34.092763],[-58.347055,-34.093048],[-58.346983,-34.094976],[-58.346376,-34.095475],[-58.347019,-34.098438],[-58.348446,-34.100758],[-58.350659,-34.099473],[-58.35248,-34.095475],[-58.353729,-34.083947],[-58.353336,-34.080235],[-58.353622,-34.076987],[-58.352908,-34.07663]]],[[[-58.466922,-34.296915],[-58.469342,-34.297764],[-58.468911,-34.29838],[-58.469644,-34.298942],[-58.468483,-34.30057],[-58.468892,-34.301036],[-58.468364,-34.302054],[-58.467103,-34.302568],[-58.466151,-34.304301],[-58.468721,-34.304434],[-58.469387,-34.30491],[-58.467655,-34.304853],[-58.467522,-34.305328],[-58.470263,-34.30569],[-58.470948,-34.305633],[-58.471405,-34.304757],[-58.472623,-34.305348],[-58.473346,-34.305081],[-58.476392,-34.303006],[-58.478277,-34.300474],[-58.481798,-34.298076],[-58.479209,-34.296001],[-58.46993,-34.294183],[-58.468892,-34.294164],[-58.468892,-34.294964],[-58.467198,-34.296011],[-58.466922,-34.296915]]],[[[-58.34344,-34.266167],[-58.342203,-34.26769],[-58.341061,-34.267832],[-58.341299,-34.270164],[-58.342203,-34.271592],[-58.342821,-34.271687],[-58.34344,-34.273924],[-58.344963,-34.275923],[-58.347818,-34.276398],[-58.349532,-34.273067],[-58.349722,-34.271402],[-58.349198,-34.269403],[-58.349627,-34.268356],[-58.348722,-34.267023],[-58.345915,-34.267166],[-58.3462,-34.26669],[-58.348247,-34.266262],[-58.349436,-34.26393],[-58.349198,-34.261075],[-58.350337,-34.255626],[-58.349912,-34.254317],[-58.348485,-34.25446],[-58.347961,-34.255079],[-58.34601,-34.260932],[-58.343916,-34.263883],[-58.344392,-34.264168],[-58.344297,-34.26512],[-58.34344,-34.266167]]],[[[-58.339659,-34.148918],[-58.341146,-34.149017],[-58.341493,-34.148571],[-58.339262,-34.145151],[-58.338944,-34.139558],[-58.338256,-34.138203],[-58.337181,-34.138064],[-58.336586,-34.140344],[-58.335,-34.143416],[-58.334901,-34.145052],[-58.335496,-34.146886],[-58.336636,-34.147927],[-58.339659,-34.148918]]],[[[-58.332442,-34.13533],[-58.332966,-34.135568],[-58.336107,-34.135187],[-58.338772,-34.133283],[-58.338153,-34.132331],[-58.338486,-34.131094],[-58.337344,-34.129809],[-58.335821,-34.129571],[-58.335298,-34.130095],[-58.334631,-34.131047],[-58.334298,-34.132903],[-58.332775,-34.133664],[-58.332252,-34.134568],[-58.332442,-34.13533]]],[[[-58.375232,-34.244947],[-58.375731,-34.245352],[-58.377231,-34.2449],[-58.379063,-34.238547],[-58.378753,-34.237404],[-58.376564,-34.238784],[-58.375874,-34.239665],[-58.375708,-34.241188],[-58.374851,-34.241783],[-58.374399,-34.243662],[-58.375232,-34.244947]]],[[[-58.47293,-34.28442],[-58.477327,-34.283678],[-58.480773,-34.282098],[-58.478965,-34.28147],[-58.47531,-34.28206],[-58.47194,-34.283678],[-58.471921,-34.284154],[-58.47293,-34.28442]]],[[[-58.466351,-34.294916],[-58.463001,-34.295668],[-58.461392,-34.29682],[-58.461525,-34.297219],[-58.463381,-34.297543],[-58.465561,-34.297086],[-58.466351,-34.294916]]],[[[-58.380934,-34.238909],[-58.381374,-34.238802],[-58.381993,-34.237482],[-58.38154,-34.236839],[-58.380291,-34.237505],[-58.380934,-34.238909]]],[[[-58.463766,-34.285925],[-58.462639,-34.286081],[-58.462187,-34.2867],[-58.463912,-34.286765],[-58.46487,-34.286045],[-58.464626,-34.285712],[-58.463766,-34.285925]]]]}},{"type":"Feature","properties":{"etiqueta":"San Isidro"},"geometry":{"type":"MultiPolygon","coordinates":[[[[-58.514155,-34.443526],[-58.514404,-34.445923],[-58.51504,-34.447],[-58.508111,-34.448004],[-58.504656,-34.449889],[-58.505727,-34.451916],[-58.505613,-34.45253],[-58.501787,-34.458883],[-58.500945,-34.45944],[-58.500759,-34.460582],[-58.500231,-34.460682],[-58.499731,-34.461524],[-58.494035,-34.463908],[-58.493842,-34.465143],[-58.492693,-34.466795],[-58.493007,-34.467419],[-58.492341,-34.468147],[-58.492503,-34.469546],[-58.491899,-34.47124],[-58.49029,-34.47074],[-58.489971,-34.47114],[-58.490409,-34.472187],[-58.489747,-34.471654],[-58.489814,-34.472101],[-58.489276,-34.471692],[-58.489257,-34.472496],[-58.488163,-34.472106],[-58.48733,-34.472944],[-58.48762,-34.473253],[-58.48615,-34.474333],[-58.48635,-34.474833],[-58.483766,-34.476732],[-58.48298,-34.478412],[-58.482062,-34.47884],[-58.481443,-34.479911],[-58.481976,-34.480258],[-58.481795,-34.481124],[-58.480686,-34.482253],[-58.480477,-34.483494],[-58.479882,-34.483713],[-58.479743,-34.484413],[-58.480514,-34.484791],[-58.479934,-34.48845],[-58.480354,-34.488533],[-58.4794,-34.489761],[-58.53123,-34.513086],[-58.53056,-34.514082],[-58.537116,-34.518527],[-58.53869,-34.517247],[-58.553764,-34.530205],[-58.600303,-34.490354],[-58.594226,-34.4864],[-58.58614,-34.48238],[-58.584716,-34.480069],[-58.57876,-34.477592],[-58.577922,-34.476027],[-58.574846,-34.475591],[-58.519475,-34.44852],[-58.516165,-34.443321],[-58.514155,-34.443526]]]]}},{"type":"Feature","properties":{"etiqueta":"San Miguel"},"geometry":{"type":"MultiPolygon","coordinates":[[[[-58.612095,-34.52986],[-58.606358,-34.53453],[-58.608488,-34.535929],[-58.612793,-34.543034],[-58.614565,-34.544106],[-58.615266,-34.545043],[-58.616925,-34.545771],[-58.617681,-34.546904],[-58.619713,-34.54666],[-58.62099,-34.545685],[-58.622494,-34.546612],[-58.623859,-34.545854],[-58.625057,-34.547076],[-58.626383,-34.546764],[-58.627572,-34.548371],[-58.630578,-34.54963],[-58.630772,-34.552094],[-58.632058,-34.552607],[-58.633501,-34.554119],[-58.635056,-34.554027],[-58.639578,-34.55588],[-58.640604,-34.558398],[-58.642247,-34.559172],[-58.643336,-34.559198],[-58.644177,-34.559994],[-58.645098,-34.562168],[-58.647147,-34.563513],[-58.648839,-34.563776],[-58.651167,-34.564957],[-58.654482,-34.565129],[-58.655402,-34.565943],[-58.656967,-34.566476],[-58.658379,-34.566189],[-58.659353,-34.567699],[-58.661152,-34.567891],[-58.661698,-34.569422],[-58.66406,-34.56987],[-58.664503,-34.571446],[-58.667466,-34.573555],[-58.670856,-34.572793],[-58.671441,-34.574824],[-58.672593,-34.575123],[-58.674897,-34.577865],[-58.677871,-34.579054],[-58.679419,-34.580774],[-58.681673,-34.581411],[-58.683751,-34.583951],[-58.683564,-34.586338],[-58.684543,-34.588221],[-58.685659,-34.588612],[-58.687344,-34.588365],[-58.68982,-34.58904],[-58.690186,-34.590859],[-58.692745,-34.59083],[-58.693781,-34.591708],[-58.693443,-34.592691],[-58.693924,-34.593728],[-58.695509,-34.594615],[-58.696203,-34.595636],[-58.703029,-34.597828],[-58.703701,-34.59884],[-58.709706,-34.601397],[-58.710283,-34.601891],[-58.710211,-34.603169],[-58.711459,-34.60349],[-58.712067,-34.604679],[-58.713374,-34.605638],[-58.77694,-34.557917],[-58.768134,-34.549936],[-58.766136,-34.551406],[-58.761491,-34.547114],[-58.756336,-34.550846],[-58.753774,-34.548478],[-58.753224,-34.548878],[-58.728602,-34.525923],[-58.724365,-34.521207],[-58.720899,-34.518234],[-58.701269,-34.532748],[-58.694452,-34.526289],[-58.693757,-34.52635],[-58.689134,-34.530159],[-58.646591,-34.501384],[-58.639765,-34.507506],[-58.612095,-34.52986]]]]}},{"type":"Feature","properties":{"etiqueta":"Tigre"},"geometry":{"type":"MultiPolygon","coordinates":[[[[-58.539706,-34.298376],[-58.538763,-34.305715],[-58.528769,-34.303288],[-58.522773,-34.303145],[-58.518918,-34.30443],[-58.510376,-34.308777],[-58.503723,-34.314392],[-58.49469,-34.323669],[-58.484985,-34.334595],[-58.471985,-34.360291],[-58.459595,-34.377197],[-58.454529,-34.386108],[-58.454121,-34.388018],[-58.456501,-34.387638],[-58.460022,-34.385734],[-58.463068,-34.386591],[-58.464876,-34.387733],[-58.466494,-34.389827],[-58.471253,-34.390112],[-58.472586,-34.39135],[-58.475632,-34.390588],[-58.476203,-34.391159],[-58.475346,-34.393919],[-58.475632,-34.395061],[-58.476203,-34.395252],[-58.477725,-34.39449],[-58.478011,-34.395728],[-58.480105,-34.395347],[-58.481057,-34.396013],[-58.480295,-34.39944],[-58.481628,-34.399916],[-58.481628,-34.401343],[-58.481152,-34.401819],[-58.481723,-34.404389],[-58.483341,-34.404294],[-58.483436,-34.404865],[-58.481342,-34.406864],[-58.481152,-34.40772],[-58.481628,-34.413621],[-58.482294,-34.414192],[-58.486006,-34.411908],[-58.486482,-34.412098],[-58.486292,-34.413716],[-58.487719,-34.413907],[-58.490384,-34.412194],[-58.491146,-34.41286],[-58.492288,-34.41286],[-58.494953,-34.411147],[-58.495714,-34.412098],[-58.493906,-34.41562],[-58.494822,-34.41606],[-58.493287,-34.419951],[-58.493501,-34.42145],[-58.491824,-34.422592],[-58.490824,-34.424341],[-58.490682,-34.425875],[-58.49086,-34.426447],[-58.49161,-34.426768],[-58.491431,-34.427696],[-58.492181,-34.428517],[-58.492038,-34.429302],[-58.490075,-34.430337],[-58.489361,-34.431265],[-58.488362,-34.434085],[-58.488112,-34.436869],[-58.488362,-34.437261],[-58.489754,-34.437047],[-58.488933,-34.437654],[-58.490539,-34.438618],[-58.492216,-34.438332],[-58.494465,-34.436476],[-58.497713,-34.4318],[-58.499105,-34.430587],[-58.503959,-34.422842],[-58.505494,-34.424269],[-58.50271,-34.429766],[-58.499605,-34.434156],[-58.499783,-34.435869],[-58.502067,-34.440152],[-58.50321,-34.440616],[-58.503138,-34.440295],[-58.503888,-34.440402],[-58.505601,-34.43951],[-58.509099,-34.440973],[-58.509777,-34.44083],[-58.510419,-34.441544],[-58.511883,-34.442115],[-58.514043,-34.442447],[-58.514155,-34.443526],[-58.516165,-34.443321],[-58.522149,-34.44391],[-58.523514,-34.443781],[-58.528797,-34.441955],[-58.533426,-34.439058],[-58.53952,-34.43284],[-58.549325,-34.429125],[-58.556016,-34.425537],[-58.557947,-34.424092],[-58.558432,-34.424402],[-58.559272,-34.42808],[-58.560342,-34.430001],[-58.579511,-34.444465],[-58.580396,-34.445],[-58.595171,-34.448343],[-58.593472,-34.452482],[-58.595153,-34.456721],[-58.594462,-34.460066],[-58.59668,-34.462381],[-58.598758,-34.463556],[-58.599022,-34.466901],[-58.60026,-34.469224],[-58.598609,-34.471284],[-58.599188,-34.472402],[-58.59927,-34.474414],[-58.601241,-34.474852],[-58.602083,-34.47714],[-58.601636,-34.478249],[-58.604113,-34.479498],[-58.605805,-34.479717],[-58.606471,-34.480382],[-58.606242,-34.481122],[-58.604251,-34.482941],[-58.602354,-34.484161],[-58.600731,-34.484371],[-58.599057,-34.485646],[-58.600936,-34.493087],[-58.600681,-34.494066],[-58.599025,-34.495972],[-58.598342,-34.498168],[-58.599897,-34.501561],[-58.601343,-34.503232],[-58.601466,-34.505341],[-58.602549,-34.50891],[-58.602477,-34.511091],[-58.603139,-34.51247],[-58.601662,-34.516843],[-58.601947,-34.518394],[-58.601517,-34.521241],[-58.603101,-34.523281],[-58.604459,-34.526162],[-58.605708,-34.53348],[-58.606343,-34.534542],[-58.639765,-34.507506],[-58.67821,-34.474651],[-58.734634,-34.40246],[-58.715909,-34.392543],[-58.721358,-34.390084],[-58.717459,-34.389844],[-58.714621,-34.388227],[-58.705329,-34.372973],[-58.721257,-34.364705],[-58.720619,-34.36329],[-58.719351,-34.362036],[-58.690393,-34.347182],[-58.686031,-34.351207],[-58.680813,-34.347213],[-58.679814,-34.345687],[-58.67844,-34.342995],[-58.666289,-34.305759],[-58.658045,-34.283667],[-58.654375,-34.272532],[-58.653304,-34.270788],[-58.65015,-34.267874],[-58.649515,-34.266598],[-58.608303,-34.274427],[-58.597238,-34.277653],[-58.570004,-34.287941],[-58.549102,-34.297106],[-58.539706,-34.298376]]],[[[-58.468938,-34.326566],[-58.466384,-34.327439],[-58.464745,-34.327471],[-58.462221,-34.328488],[-58.460352,-34.329985],[-58.459445,-34.330192],[-58.459369,-34.330793],[-58.458647,-34.330957],[-58.456462,-34.334542],[-58.457555,-34.34183],[-58.456779,-34.344573],[-58.454321,-34.346561],[-58.449804,-34.347855],[-58.449804,-34.348402],[-58.447353,-34.351353],[-58.445663,-34.355089],[-58.445806,-34.356278],[-58.446401,-34.356516],[-58.447876,-34.356136],[-58.449685,-34.354684],[-58.451588,-34.353899],[-58.45342,-34.351448],[-58.452555,-34.350892],[-58.452696,-34.349999],[-58.453895,-34.349193],[-58.45304,-34.350092],[-58.453695,-34.351275],[-58.452492,-34.353518],[-58.449946,-34.355945],[-58.448923,-34.358182],[-58.447043,-34.36068],[-58.443974,-34.363345],[-58.442713,-34.365059],[-58.44372,-34.369947],[-58.446376,-34.374854],[-58.447523,-34.375979],[-58.449979,-34.377004],[-58.452615,-34.37728],[-58.454353,-34.376657],[-58.459095,-34.371488],[-58.460593,-34.367991],[-58.461871,-34.367259],[-58.462385,-34.366002],[-58.463477,-34.364942],[-58.465242,-34.364117],[-58.467575,-34.360112],[-58.467466,-34.359238],[-58.468624,-34.358528],[-58.468887,-34.35738],[-58.469433,-34.357184],[-58.470701,-34.354911],[-58.470635,-34.354321],[-58.470242,-34.354288],[-58.471761,-34.352015],[-58.473498,-34.350977],[-58.481144,-34.337083],[-58.485988,-34.330684],[-58.486415,-34.329438],[-58.485835,-34.326553],[-58.483956,-34.326914],[-58.473064,-34.326326],[-58.468938,-34.326566]]],[[[-58.445627,-34.342125],[-58.445855,-34.342582],[-58.448082,-34.342449],[-58.448444,-34.342754],[-58.447683,-34.344124],[-58.450785,-34.346618],[-58.45444,-34.345647],[-58.456336,-34.343665],[-58.456651,-34.339483],[-58.454155,-34.331351],[-58.453412,-34.330685],[-58.450595,-34.332227],[-58.444047,-34.339422],[-58.443818,-34.339993],[-58.445627,-34.342125]]],[[[-58.445079,-34.326859],[-58.441953,-34.327244],[-58.441339,-34.328029],[-58.440254,-34.332655],[-58.44141,-34.336253],[-58.445336,-34.331484],[-58.450076,-34.328301],[-58.449548,-34.327687],[-58.445079,-34.326859]]],[[[-58.442847,-34.337965],[-58.444122,-34.337851],[-58.448482,-34.333459],[-58.450023,-34.331429],[-58.450708,-34.329761],[-58.450499,-34.329152],[-58.447929,-34.330199],[-58.44456,-34.332845],[-58.442694,-34.335643],[-58.442295,-34.337318],[-58.442847,-34.337965]]],[[[-58.437955,-34.326787],[-58.437084,-34.327444],[-58.438012,-34.329229],[-58.439426,-34.330599],[-58.439654,-34.331741],[-58.441367,-34.326944],[-58.437955,-34.326787]]]]}},{"type":"Feature","properties":{"etiqueta":"Vicente López"},"geometry":{"type":"MultiPolygon","coordinates":[[[[-58.479285,-34.494397],[-58.479649,-34.495101],[-58.478347,-34.495515],[-58.478853,-34.495793],[-58.478464,-34.496132],[-58.479096,-34.496378],[-58.478786,-34.496617],[-58.479267,-34.49727],[-58.47734,-34.496824],[-58.476489,-34.49771],[-58.476489,-34.498739],[-58.477477,-34.499578],[-58.476549,-34.503808],[-58.475407,-34.504081],[-58.474651,-34.505313],[-58.475645,-34.507169],[-58.47408,-34.508138],[-58.473923,-34.509029],[-58.474687,-34.509608],[-58.473416,-34.50955],[-58.473166,-34.5101],[-58.47271,-34.509622],[-58.471946,-34.509829],[-58.470447,-34.511485],[-58.470225,-34.512477],[-58.468412,-34.513327],[-58.468969,-34.515161],[-58.468512,-34.516332],[-58.469612,-34.517074],[-58.469804,-34.518088],[-58.468377,-34.519944],[-58.468419,-34.521586],[-58.467727,-34.522942],[-58.464922,-34.524598],[-58.462345,-34.527418],[-58.462045,-34.526754],[-58.460567,-34.526583],[-58.45965,-34.52708],[-58.459564,-34.527784],[-58.464155,-34.53339],[-58.488384,-34.543767],[-58.500804,-34.549533],[-58.50996,-34.569205],[-58.513182,-34.565895],[-58.524613,-34.55044],[-58.526614,-34.545029],[-58.529017,-34.542373],[-58.527575,-34.541675],[-58.529811,-34.537332],[-58.533597,-34.539701],[-58.537781,-34.544164],[-58.553764,-34.530205],[-58.53869,-34.517247],[-58.537116,-34.518527],[-58.53056,-34.514082],[-58.53123,-34.513086],[-58.4794,-34.489761],[-58.4785,-34.492749],[-58.479464,-34.493869],[-58.479285,-34.494397]]]]}}]}