{"type":"FeatureCollection","features":[{"type":"Feature","properties":{"etiqueta":"General San Martín"},"geometry":{"type":"Point","coordinates":[-58.564282,-34.552772]}},{"type":"Feature","properties":{"etiqueta":"José C. Paz"},"geometry":{"type":"Point","coordinates":[-58.777635,-34.511853]}},{"type":"Feature","properties":{"etiqueta":"Malvinas Argentinas"},"geometry":{"type":"Point","coordinates":[-58.712137,-34.487311]}},{"type":"Feature","properties":{"etiqueta":"San Fernando"},"geometry":{"type":"Point","coordinates":[-58.549334,-34.141551]}},{"type":"Feature","properties":{"etiqueta":"San Isidro"},"geometry":{"type":"Point","coordinates":[-58.537209,-34.486893]}},{"type":"Feature","properties":{"etiqueta":"San Miguel"},"geometry":{"type":"Point","coordinates":[-58.691784,-34.552134]}},{"type":"Feature","properties":{"etiqueta":"Tigre"},"geometry":{"type":"Point","coordinates":[-58.601507,-34.383671]}},{"type":"Feature","properties":{"etiqueta":"Vicente López"},"geometry":{"type":"Point","coordinates":[-58.504487,-34.526531]}}]}