{"type":"FeatureCollection","features":[{"type":"Feature","properties":{"etiqueta":"Hurlingham"},"geometry":{"type":"Point","coordinates":[-58.649525,-34.599283]}},{"type":"Feature","properties":{"etiqueta":"Ituzaingó"},"geometry":{"type":"Point","coordinates":[-58.68876,-34.636072]}},{"type":"Feature","properties":{"etiqueta":"La Matanza"},"geometry":{"type":"Point","coordinates":[-58.625446,-34.770348]}},{"type":"Feature","properties":{"etiqueta":"Merlo"},"geometry":{"type":"Point","coordinates":[-58.741958,-34.711003]}},{"type":"Feature","properties":{"etiqueta":"Moreno"},"geometry":{"type":"Point","coordinates":[-58.810899,-34.610681]}},{"type":"Feature","properties":{"etiqueta":"Morón"},"geometry":{"type":"Point","coordinates":[-58.619832,-34.649386]}},{"type":"Feature","properties":{"etiqueta":"Tres de Febrero"},"geometry":{"type":"Point","coordinates":[-58.579188,-34.59601]}}]}