{"type":"FeatureCollection","features":[{"type":"Feature","properties":{"etiqueta":"Almirante Brown"},"geometry":{"type":"MultiPolygon","coordinates":[[[[-58.333957,-34.758241],[-58.326683,-34.76763],[-58.317006,-34.78338],[-58.309779,-34.793387],[-58.3328,-34.805754],[-58.322584,-34.819073],[-58.302723,-34.841679],[-58.292471,-34.854868],[-58.317148,-34.868154],[-58.31246,-34.874838],[-58.3421,-34.890711],[-58.346298,-34.885034],[-58.396445,-34.909881],[-58.415943,-34.883021],[-58.408792,-34.879458],[-58.447753,-34.825989],[-58.405102,-34.804573],[-58.407728,-34.801125],[-58.40839,-34.80113],[-58.409954,-34.798587],[-58.358683,-34.771354],[-58.362003,-34.767389],[-58.336639,-34.754401],[-58.333957,-34.758241]]]]}},{"type":"Feature","properties":{"etiqueta":"Avellaneda"},"geometry":{"type":"MultiPolygon","coordinates":[[[[-58.338381,-34.633576],[-58.336017,-34.633006],[-58.335974,-34.634348],[-58.334603,-34.634234],[-58.333118,-34.635062],[-58.333061,-34.637147],[-58.331734,-34.639788],[-58.332305,-34.640502],[-58.331791,-34.641415],[-58.332862,-34.6436],[-58.332847,-34.644728],[-58.328079,-34.647954],[-58.328736,-34.648511],[-58.327608,-34.649496],[-58.316814,-34.657734],[-58.312446,-34.659718],[-58.307021,-34.663045],[-58.304065,-34.665615],[-58.300767,-34.666928],[-58.299811,-34.666671],[-58.299697,-34.66767],[-58.279639,-34.678642],[-58.30262,-34.698431],[-58.316609,-34.711387],[-58.316924,-34.711139],[-58.322011,-34.716408],[-58.333505,-34.726984],[-58.378162,-34.688277],[-58.379667,-34.689505],[-58.390921,-34.680729],[-58.397143,-34.674536],[-58.39482,-34.672483],[-58.406505,-34.663512],[-58.402825,-34.659977],[-58.397868,-34.662008],[-58.391719,-34.662607],[-58.390049,-34.66116],[-58.387389,-34.660343],[-58.385278,-34.658227],[-58.374052,-34.657194],[-58.369662,-34.654038],[-58.368358,-34.651046],[-58.364229,-34.648894],[-58.361741,-34.648319],[-58.356624,-34.644634],[-58.357646,-34.640237],[-58.352054,-34.635478],[-58.349674,-34.634169],[-58.341887,-34.631097],[-58.338381,-34.633576]]]]}},{"type":"Feature","properties":{"etiqueta":"Berazategui"},"geometry":{"type":"MultiPolygon","coordinates":[[[[-58.191008,-34.738198],[-58.187481,-34.740296],[-58.184712,-34.741181],[-58.179543,-34.743766],[-58.179144,-34.744479],[-58.174147,-34.745279],[-58.170906,-34.746664],[-58.168407,-34.746949],[-58.165866,-34.747777],[-58.159813,-34.748505],[-58.158742,-34.748948],[-58.158028,-34.748448],[-58.155401,-34.748234],[-58.154359,-34.748848],[-58.152061,-34.749048],[-58.150947,-34.748648],[-58.149676,-34.749276],[-58.147449,-34.749605],[-58.14625,-34.749062],[-58.145379,-34.749491],[-58.142966,-34.74882],[-58.141039,-34.748848],[-58.138969,-34.748991],[-58.138655,-34.749419],[-58.135514,-34.750147],[-58.131602,-34.749419],[-58.13006,-34.749833],[-58.121594,-34.750176],[-58.120195,-34.750618],[-58.119338,-34.750219],[-58.116997,-34.750704],[-58.112985,-34.751703],[-58.109844,-34.752774],[-58.108645,-34.753588],[-58.108002,-34.753459],[-58.106146,-34.754387],[-58.103363,-34.755087],[-58.092498,-34.760526],[-58.092212,-34.761083],[-58.09137,-34.761026],[-58.084831,-34.764238],[-58.084489,-34.764909],[-58.082847,-34.765124],[-58.078678,-34.767722],[-58.070169,-34.771577],[-58.065915,-34.773047],[-58.053765,-34.776602],[-58.052823,-34.776331],[-58.039531,-34.777444],[-58.036433,-34.777245],[-58.026496,-34.77813],[-58.021557,-34.779243],[-58.018601,-34.780485],[-58.017688,-34.780318],[-58.088052,-34.838889],[-58.088515,-34.83891],[-58.147857,-34.887437],[-58.146739,-34.888335],[-58.14762,-34.889237],[-58.207968,-34.941983],[-58.203636,-34.945245],[-58.211085,-34.951783],[-58.247414,-34.923592],[-58.179871,-34.866004],[-58.188849,-34.841808],[-58.194871,-34.821746],[-58.199915,-34.813772],[-58.203868,-34.812039],[-58.209365,-34.810997],[-58.213914,-34.808834],[-58.225107,-34.806416],[-58.234996,-34.802303],[-58.238496,-34.800408],[-58.246646,-34.794233],[-58.252648,-34.790348],[-58.267461,-34.773646],[-58.257134,-34.768487],[-58.230056,-34.7538],[-58.194645,-34.735695],[-58.191008,-34.738198]]]]}},{"type":"Feature","properties":{"etiqueta":"Esteban Echeverría"},"geometry":{"type":"MultiPolygon","coordinates":[[[[-58.500797,-34.722992],[-58.430528,-34.817248],[-58.447753,-34.825989],[-58.413042,-34.873576],[-58.422399,-34.886192],[-58.435585,-34.892738],[-58.435407,-34.893007],[-58.453245,-34.901214],[-58.452124,-34.902783],[-58.462921,-34.908601],[-58.463578,-34.907758],[-58.49186,-34.927632],[-58.500059,-34.917782],[-58.504676,-34.909574],[-58.510333,-34.901681],[-58.50411,-34.881357],[-58.502294,-34.869966],[-58.502852,-34.854959],[-58.506584,-34.844551],[-58.509177,-34.822157],[-58.514397,-34.797831],[-58.517506,-34.790835],[-58.524032,-34.781554],[-58.524502,-34.779139],[-58.522918,-34.75335],[-58.520507,-34.741056],[-58.517483,-34.74143],[-58.516375,-34.741037],[-58.515274,-34.739893],[-58.512664,-34.739894],[-58.512186,-34.737312],[-58.509414,-34.734981],[-58.509443,-34.732853],[-58.507293,-34.731168],[-58.507223,-34.727526],[-58.504836,-34.724522],[-58.504605,-34.721433],[-58.502619,-34.72191],[-58.500797,-34.722992]]]]}},{"type":"Feature","properties":{"etiqueta":"Ezeiza"},"geometry":{"type":"MultiPolygon","coordinates":[[[[-58.520507,-34.741056],[-58.522918,-34.75335],[-58.524458,-34.779966],[-58.523481,-34.782445],[-58.517036,-34.791654],[-58.514397,-34.797831],[-58.509177,-34.822157],[-58.506584,-34.844551],[-58.502852,-34.854959],[-58.502294,-34.869966],[-58.50411,-34.881357],[-58.510333,-34.901681],[-58.504676,-34.909574],[-58.500059,-34.917782],[-58.492038,-34.927506],[-58.490155,-34.928838],[-58.511506,-34.946652],[-58.531017,-34.964141],[-58.534276,-34.961535],[-58.55317,-34.976277],[-58.549198,-34.979818],[-58.556271,-35.007048],[-58.620151,-34.960741],[-58.614143,-34.956769],[-58.599054,-34.942952],[-58.611706,-34.926653],[-58.610654,-34.92522],[-58.614523,-34.923608],[-58.616338,-34.923823],[-58.618261,-34.922705],[-58.618401,-34.921673],[-58.621343,-34.919918],[-58.623522,-34.919774],[-58.626591,-34.918344],[-58.628195,-34.919755],[-58.650331,-34.891087],[-58.646857,-34.889685],[-58.646361,-34.888627],[-58.646504,-34.887253],[-58.6456,-34.885719],[-58.645945,-34.883053],[-58.643983,-34.877168],[-58.644856,-34.875795],[-58.643832,-34.874534],[-58.643806,-34.87296],[-58.64255,-34.871887],[-58.642796,-34.868848],[-58.639791,-34.866217],[-58.639382,-34.865437],[-58.639956,-34.864096],[-58.639529,-34.863016],[-58.637114,-34.861456],[-58.636065,-34.858488],[-58.634291,-34.857171],[-58.631728,-34.85401],[-58.63039,-34.853138],[-58.630615,-34.850885],[-58.628539,-34.847318],[-58.628657,-34.846571],[-58.62495,-34.84422],[-58.624726,-34.842142],[-58.623681,-34.839769],[-58.620799,-34.835205],[-58.619655,-34.83194],[-58.619642,-34.830448],[-58.617747,-34.829137],[-58.616081,-34.823023],[-58.617007,-34.82174],[-58.615506,-34.818527],[-58.614666,-34.817668],[-58.613178,-34.817101],[-58.609691,-34.813104],[-58.607633,-34.81243],[-58.606595,-34.810707],[-58.603729,-34.809584],[-58.602551,-34.809843],[-58.600872,-34.81145],[-58.599682,-34.811079],[-58.598027,-34.80813],[-58.598256,-34.807287],[-58.597201,-34.806695],[-58.597676,-34.805083],[-58.597376,-34.804671],[-58.596326,-34.804812],[-58.59556,-34.805732],[-58.594479,-34.805573],[-58.594293,-34.804851],[-58.595761,-34.804223],[-58.595904,-34.803686],[-58.594783,-34.803028],[-58.594036,-34.801225],[-58.592522,-34.800119],[-58.592376,-34.798896],[-58.58976,-34.797752],[-58.589829,-34.797068],[-58.59093,-34.795978],[-58.587542,-34.792727],[-58.587616,-34.79194],[-58.588519,-34.79083],[-58.587936,-34.786576],[-58.584364,-34.782744],[-58.584864,-34.781339],[-58.586154,-34.780845],[-58.58634,-34.780372],[-58.58322,-34.7776],[-58.581866,-34.77731],[-58.580747,-34.776384],[-58.578505,-34.778119],[-58.577794,-34.77825],[-58.572171,-34.775224],[-58.572049,-34.773677],[-58.572407,-34.773269],[-58.573335,-34.772828],[-58.574752,-34.773133],[-58.575208,-34.772757],[-58.573804,-34.770666],[-58.57476,-34.769697],[-58.574834,-34.768529],[-58.573816,-34.766777],[-58.570884,-34.76683],[-58.570192,-34.766516],[-58.569732,-34.765617],[-58.567596,-34.765754],[-58.56792,-34.764284],[-58.568997,-34.763248],[-58.56934,-34.76212],[-58.568276,-34.760827],[-58.568155,-34.758829],[-58.565924,-34.757325],[-58.560643,-34.757344],[-58.559167,-34.756113],[-58.557805,-34.756984],[-58.55656,-34.757136],[-58.555748,-34.755953],[-58.554319,-34.75504],[-58.552478,-34.751343],[-58.551763,-34.750917],[-58.55091,-34.751176],[-58.551414,-34.75199],[-58.551228,-34.752604],[-58.549372,-34.752771],[-58.547855,-34.75413],[-58.547741,-34.755012],[-58.545975,-34.756703],[-58.545882,-34.758892],[-58.545108,-34.758847],[-58.54412,-34.757889],[-58.542105,-34.758198],[-58.539279,-34.756839],[-58.537507,-34.756953],[-58.535743,-34.755157],[-58.53696,-34.754248],[-58.5365,-34.752825],[-58.537086,-34.751898],[-58.538546,-34.750875],[-58.538749,-34.746805],[-58.536237,-34.745383],[-58.531528,-34.745645],[-58.529989,-34.744405],[-58.527456,-34.744268],[-58.522063,-34.740927],[-58.520507,-34.741056]]]]}},{"type":"Feature","properties":{"etiqueta":"Florencio Varela"},"geometry":{"type":"MultiPolygon","coordinates":[[[[-58.267461,-34.773646],[-58.252648,-34.790348],[-58.246646,-34.794233],[-58.238496,-34.800408],[-58.234996,-34.802303],[-58.225107,-34.806416],[-58.213914,-34.808834],[-58.209365,-34.810997],[-58.203868,-34.812039],[-58.199915,-34.813772],[-58.194871,-34.821746],[-58.188849,-34.841808],[-58.179871,-34.866004],[-58.247414,-34.923592],[-58.211085,-34.951783],[-58.247645,-34.984136],[-58.245642,-34.987956],[-58.257937,-34.994232],[-58.267771,-35.00065],[-58.277172,-35.009418],[-58.284017,-34.996425],[-58.300786,-34.971682],[-58.288205,-34.965044],[-58.316317,-34.926331],[-58.294059,-34.915315],[-58.280689,-34.916944],[-58.274607,-34.91706],[-58.280898,-34.907612],[-58.297184,-34.895107],[-58.317148,-34.868154],[-58.292471,-34.854868],[-58.302723,-34.841679],[-58.322584,-34.819073],[-58.332806,-34.805737],[-58.309779,-34.793387],[-58.304114,-34.801165],[-58.302735,-34.800073],[-58.301134,-34.797762],[-58.30095,-34.790382],[-58.299263,-34.789015],[-58.29857,-34.786958],[-58.298454,-34.783439],[-58.271639,-34.768832],[-58.267461,-34.773646]]]]}},{"type":"Feature","properties":{"etiqueta":"Lanús"},"geometry":{"type":"MultiPolygon","coordinates":[[[[-58.408451,-34.660136],[-58.406124,-34.660265],[-58.403364,-34.659756],[-58.402539,-34.659987],[-58.406505,-34.663512],[-58.39482,-34.672483],[-58.397143,-34.674536],[-58.391937,-34.679815],[-58.379667,-34.689505],[-58.378162,-34.688277],[-58.333505,-34.726984],[-58.347314,-34.73984],[-58.356157,-34.74014],[-58.366679,-34.745552],[-58.371857,-34.74136],[-58.374902,-34.743067],[-58.380369,-34.738812],[-58.386094,-34.737118],[-58.413453,-34.732627],[-58.446915,-34.688777],[-58.427364,-34.665578],[-58.423859,-34.6623],[-58.421403,-34.66106],[-58.412722,-34.658747],[-58.408451,-34.660136]]]]}},{"type":"Feature","properties":{"etiqueta":"Lomas de Zamora"},"geometry":{"type":"MultiPolygon","coordinates":[[[[-58.434443,-34.705195],[-58.413269,-34.732865],[-58.386094,-34.737118],[-58.380369,-34.738812],[-58.374902,-34.743067],[-58.371857,-34.74136],[-58.366679,-34.745552],[-58.356157,-34.74014],[-58.347314,-34.73984],[-58.346962,-34.739344],[-58.336639,-34.754401],[-58.362003,-34.767389],[-58.358683,-34.771354],[-58.409954,-34.798587],[-58.40839,-34.80113],[-58.407728,-34.801125],[-58.405102,-34.804573],[-58.430528,-34.817248],[-58.500797,-34.722992],[-58.49849,-34.723216],[-58.495862,-34.725047],[-58.494312,-34.725046],[-58.492249,-34.727962],[-58.487152,-34.729679],[-58.485474,-34.732239],[-58.484848,-34.73246],[-58.483902,-34.732136],[-58.484062,-34.729847],[-58.483598,-34.728568],[-58.484516,-34.72757],[-58.45882,-34.702669],[-58.446915,-34.688777],[-58.434443,-34.705195]]]]}},{"type":"Feature","properties":{"etiqueta":"Quilmes"},"geometry":{"type":"MultiPolygon","coordinates":[[[[-58.26292,-34.687572],[-58.260535,-34.6886],[-58.26075,-34.6891],[-58.259636,-34.688957],[-58.255767,-34.691213],[-58.252184,-34.692655],[-58.250642,-34.693925],[-58.249742,-34.694368],[-58.249285,-34.694197],[-58.233995,-34.702834],[-58.230154,-34.701378],[-58.232282,-34.704362],[-58.231768,-34.705047],[-58.230811,-34.70409],[-58.23054,-34.705076],[-58.231411,-34.70529],[-58.231225,-34.705675],[-58.229569,-34.706232],[-58.229184,-34.707117],[-58.226514,-34.707802],[-58.223644,-34.709815],[-58.222402,-34.709616],[-58.221646,-34.710986],[-58.211252,-34.717553],[-58.209924,-34.719409],[-58.207797,-34.720908],[-58.206669,-34.72305],[-58.20477,-34.724249],[-58.2023,-34.730017],[-58.200245,-34.73223],[-58.198203,-34.735642],[-58.197589,-34.735985],[-58.19579,-34.735371],[-58.194645,-34.735695],[-58.230056,-34.7538],[-58.257134,-34.768487],[-58.267461,-34.773646],[-58.271639,-34.768832],[-58.298454,-34.783439],[-58.29857,-34.786958],[-58.299263,-34.789015],[-58.30095,-34.790382],[-58.301134,-34.797762],[-58.302735,-34.800073],[-58.304114,-34.801165],[-58.317006,-34.78338],[-58.326683,-34.76763],[-58.333957,-34.758241],[-58.346962,-34.739344],[-58.322011,-34.716408],[-58.316924,-34.711139],[-58.316609,-34.711387],[-58.30262,-34.698431],[-58.279639,-34.678642],[-58.26292,-34.687572]]]]}}]}