{"type":"FeatureCollection","features":[{"type":"Feature","properties":{"etiqueta":"Hurlingham"},"geometry":{"type":"MultiPolygon","coordinates":[[[[-58.642231,-34.566309],[-58.616535,-34.587778],[-58.616028,-34.588705],[-58.6165,-34.588601],[-58.617841,-34.595567],[-58.619127,-34.598133],[-58.619718,-34.603898],[-58.618205,-34.606135],[-58.618247,-34.607781],[-58.619173,-34.609904],[-58.618598,-34.611429],[-58.619576,-34.612489],[-58.619054,-34.61498],[-58.619295,-34.617015],[-58.618194,-34.619244],[-58.618636,-34.623774],[-58.619618,-34.624608],[-58.619749,-34.629056],[-58.620379,-34.631419],[-58.621808,-34.633151],[-58.649002,-34.631393],[-58.653486,-34.631612],[-58.653855,-34.63026],[-58.654931,-34.629297],[-58.684382,-34.605172],[-58.682222,-34.603234],[-58.693934,-34.593742],[-58.693449,-34.592774],[-58.693781,-34.591708],[-58.692745,-34.59083],[-58.690186,-34.590859],[-58.68982,-34.58904],[-58.687344,-34.588365],[-58.685659,-34.588612],[-58.684543,-34.588221],[-58.683564,-34.586338],[-58.683751,-34.583951],[-58.681673,-34.581411],[-58.679419,-34.580774],[-58.677871,-34.579054],[-58.674897,-34.577865],[-58.672593,-34.575123],[-58.671441,-34.574824],[-58.670856,-34.572793],[-58.667466,-34.573555],[-58.664503,-34.571446],[-58.66406,-34.56987],[-58.661698,-34.569422],[-58.661152,-34.567891],[-58.659353,-34.567699],[-58.658379,-34.566189],[-58.656967,-34.566476],[-58.655402,-34.565943],[-58.654482,-34.565129],[-58.651167,-34.564957],[-58.646345,-34.56293],[-58.642231,-34.566309]]]]}},{"type":"Feature","properties":{"etiqueta":"Ituzaingó"},"geometry":{"type":"MultiPolygon","coordinates":[[[[-58.682222,-34.603234],[-58.684382,-34.605172],[-58.654931,-34.629297],[-58.653855,-34.63026],[-58.653486,-34.631612],[-58.667381,-34.685988],[-58.729025,-34.634784],[-58.727157,-34.633163],[-58.72694,-34.631299],[-58.724933,-34.6301],[-58.725001,-34.628394],[-58.723929,-34.626892],[-58.724134,-34.623616],[-58.723688,-34.619712],[-58.721166,-34.61644],[-58.719687,-34.613575],[-58.719713,-34.612307],[-58.718968,-34.610503],[-58.717498,-34.609688],[-58.717713,-34.608577],[-58.716656,-34.607058],[-58.714804,-34.605957],[-58.713145,-34.605531],[-58.711774,-34.604325],[-58.711459,-34.60349],[-58.710351,-34.603318],[-58.709898,-34.60151],[-58.703701,-34.59884],[-58.703029,-34.597828],[-58.696432,-34.595786],[-58.695509,-34.594615],[-58.693934,-34.593742],[-58.682222,-34.603234]]]]}},{"type":"Feature","properties":{"etiqueta":"La Matanza"},"geometry":{"type":"MultiPolygon","coordinates":[[[[-58.552207,-34.637594],[-58.461655,-34.705135],[-58.484516,-34.72757],[-58.483598,-34.728568],[-58.484062,-34.729847],[-58.483902,-34.732136],[-58.484848,-34.73246],[-58.485474,-34.732239],[-58.487152,-34.729679],[-58.492249,-34.727962],[-58.494312,-34.725046],[-58.495862,-34.725047],[-58.49849,-34.723216],[-58.500773,-34.723009],[-58.504473,-34.721278],[-58.504836,-34.724522],[-58.507223,-34.727526],[-58.507293,-34.731168],[-58.509443,-34.732853],[-58.509414,-34.734981],[-58.512186,-34.737312],[-58.512664,-34.739894],[-58.515274,-34.739893],[-58.516375,-34.741037],[-58.517483,-34.74143],[-58.522063,-34.740927],[-58.527456,-34.744268],[-58.529989,-34.744405],[-58.531528,-34.745645],[-58.536237,-34.745383],[-58.538749,-34.746805],[-58.538546,-34.750875],[-58.537086,-34.751898],[-58.5365,-34.752825],[-58.53696,-34.754248],[-58.535743,-34.755157],[-58.537507,-34.756953],[-58.539279,-34.756839],[-58.542105,-34.758198],[-58.54412,-34.757889],[-58.545108,-34.758847],[-58.545882,-34.758892],[-58.545975,-34.756703],[-58.549295,-34.75283],[-58.551228,-34.752604],[-58.551414,-34.75199],[-58.55091,-34.751176],[-58.551406,-34.750907],[-58.552478,-34.751343],[-58.554319,-34.75504],[-58.555748,-34.755953],[-58.55656,-34.757136],[-58.557805,-34.756984],[-58.559167,-34.756113],[-58.560643,-34.757344],[-58.565698,-34.757272],[-58.566983,-34.757761],[-58.568326,-34.759131],[-58.568276,-34.760827],[-58.569336,-34.761992],[-58.568997,-34.763248],[-58.56792,-34.764284],[-58.567596,-34.765754],[-58.569732,-34.765617],[-58.570192,-34.766516],[-58.570884,-34.76683],[-58.573816,-34.766777],[-58.574834,-34.768529],[-58.57476,-34.769697],[-58.573804,-34.770666],[-58.575208,-34.772757],[-58.574752,-34.773133],[-58.573335,-34.772828],[-58.572407,-34.773269],[-58.572049,-34.773677],[-58.572171,-34.775224],[-58.577794,-34.77825],[-58.578505,-34.778119],[-58.580747,-34.776384],[-58.581866,-34.77731],[-58.58322,-34.7776],[-58.58634,-34.780372],[-58.586154,-34.780845],[-58.584864,-34.781339],[-58.584364,-34.782744],[-58.587936,-34.786576],[-58.588519,-34.79083],[-58.587616,-34.79194],[-58.587542,-34.792727],[-58.59093,-34.795978],[-58.589829,-34.797068],[-58.58976,-34.797752],[-58.592376,-34.798896],[-58.592522,-34.800119],[-58.594036,-34.801225],[-58.594783,-34.803028],[-58.595904,-34.803686],[-58.595761,-34.804223],[-58.594293,-34.804851],[-58.594479,-34.805573],[-58.59556,-34.805732],[-58.596326,-34.804812],[-58.597376,-34.804671],[-58.597676,-34.805083],[-58.597201,-34.806695],[-58.598256,-34.807287],[-58.598027,-34.80813],[-58.599682,-34.811079],[-58.600872,-34.81145],[-58.602551,-34.809843],[-58.603729,-34.809584],[-58.606595,-34.810707],[-58.607633,-34.81243],[-58.609691,-34.813104],[-58.613178,-34.817101],[-58.614666,-34.817668],[-58.615506,-34.818527],[-58.617007,-34.82174],[-58.616081,-34.823023],[-58.617747,-34.829137],[-58.619642,-34.830448],[-58.619655,-34.83194],[-58.620799,-34.835205],[-58.623681,-34.839769],[-58.624726,-34.842142],[-58.62495,-34.84422],[-58.628657,-34.846571],[-58.628539,-34.847318],[-58.630615,-34.850885],[-58.63039,-34.853138],[-58.631728,-34.85401],[-58.634291,-34.857171],[-58.636065,-34.858488],[-58.637114,-34.861456],[-58.639529,-34.863016],[-58.639956,-34.864096],[-58.639382,-34.865437],[-58.639791,-34.866217],[-58.642796,-34.868848],[-58.642496,-34.871619],[-58.643806,-34.87296],[-58.643832,-34.874534],[-58.644856,-34.875795],[-58.643983,-34.877168],[-58.645945,-34.883053],[-58.6456,-34.885719],[-58.646504,-34.887253],[-58.646361,-34.888627],[-58.646857,-34.889685],[-58.650288,-34.890849],[-58.653562,-34.893342],[-58.658161,-34.895633],[-58.661963,-34.898476],[-58.664235,-34.899381],[-58.668381,-34.902926],[-58.670848,-34.903677],[-58.672619,-34.904813],[-58.67482,-34.904674],[-58.680173,-34.907221],[-58.685928,-34.911805],[-58.694106,-34.912195],[-58.70598,-34.903568],[-58.71469,-34.89661],[-58.723814,-34.888393],[-58.762494,-34.858422],[-58.749862,-34.847367],[-58.774041,-34.828664],[-58.773244,-34.827613],[-58.771599,-34.828113],[-58.76937,-34.827157],[-58.76781,-34.827114],[-58.765545,-34.827825],[-58.762906,-34.827155],[-58.758467,-34.826928],[-58.755542,-34.827687],[-58.748961,-34.825071],[-58.745544,-34.82488],[-58.744496,-34.825273],[-58.741982,-34.823846],[-58.740082,-34.823709],[-58.735084,-34.81929],[-58.734476,-34.81722],[-58.729134,-34.817764],[-58.728114,-34.818375],[-58.725592,-34.817812],[-58.723156,-34.818134],[-58.719669,-34.817941],[-58.716823,-34.816314],[-58.714912,-34.816253],[-58.713773,-34.815006],[-58.712312,-34.814748],[-58.710725,-34.813171],[-58.710168,-34.811854],[-58.708346,-34.812209],[-58.707051,-34.811268],[-58.750247,-34.777588],[-58.728396,-34.759307],[-58.703884,-34.778711],[-58.681935,-34.7595],[-58.67361,-34.766327],[-58.657915,-34.753297],[-58.675462,-34.739295],[-58.655007,-34.722318],[-58.649602,-34.726541],[-58.636154,-34.715029],[-58.642989,-34.709608],[-58.639379,-34.700621],[-58.638547,-34.700777],[-58.637207,-34.699601],[-58.583254,-34.650647],[-58.580707,-34.649398],[-58.581876,-34.64317],[-58.570261,-34.641345],[-58.570916,-34.638366],[-58.564377,-34.63799],[-58.561718,-34.637279],[-58.562059,-34.636502],[-58.556033,-34.63468],[-58.552207,-34.637594]]]]}},{"type":"Feature","properties":{"etiqueta":"Merlo"},"geometry":{"type":"MultiPolygon","coordinates":[[[[-58.698293,-34.660258],[-58.660793,-34.691386],[-58.661008,-34.692348],[-58.659247,-34.692684],[-58.65539,-34.695822],[-58.640974,-34.704543],[-58.642989,-34.709608],[-58.636154,-34.715029],[-58.649602,-34.726541],[-58.655007,-34.722318],[-58.675462,-34.739295],[-58.657915,-34.753297],[-58.67361,-34.766327],[-58.681935,-34.7595],[-58.703884,-34.778711],[-58.728396,-34.759307],[-58.750247,-34.777588],[-58.770361,-34.761721],[-58.830365,-34.724346],[-58.864295,-34.698422],[-58.864286,-34.694332],[-58.860294,-34.685206],[-58.85419,-34.684514],[-58.845894,-34.684646],[-58.84473,-34.685204],[-58.839524,-34.686002],[-58.834345,-34.686162],[-58.82728,-34.68437],[-58.82549,-34.682988],[-58.823673,-34.682568],[-58.822931,-34.682703],[-58.820737,-34.68504],[-58.818311,-34.685589],[-58.816216,-34.683832],[-58.815438,-34.683802],[-58.814302,-34.682223],[-58.811383,-34.682263],[-58.80965,-34.680725],[-58.80965,-34.677314],[-58.806899,-34.677374],[-58.80421,-34.676056],[-58.794381,-34.673252],[-58.790798,-34.671304],[-58.786524,-34.670011],[-58.780091,-34.665963],[-58.778111,-34.666047],[-58.772615,-34.664784],[-58.768856,-34.665061],[-58.76776,-34.664223],[-58.7665,-34.662051],[-58.761403,-34.661667],[-58.759709,-34.660815],[-58.757549,-34.660482],[-58.753082,-34.657401],[-58.750682,-34.654796],[-58.748991,-34.654132],[-58.748283,-34.653127],[-58.746518,-34.652128],[-58.745721,-34.650958],[-58.740487,-34.6484],[-58.739236,-34.646249],[-58.73581,-34.643948],[-58.731742,-34.642561],[-58.731315,-34.641258],[-58.731896,-34.639266],[-58.731716,-34.638024],[-58.729025,-34.634784],[-58.698293,-34.660258]]]]}},{"type":"Feature","properties":{"etiqueta":"Moreno"},"geometry":{"type":"MultiPolygon","coordinates":[[[[-58.811087,-34.521046],[-58.776028,-34.557058],[-58.77694,-34.557917],[-58.713374,-34.605638],[-58.715004,-34.606045],[-58.717161,-34.607516],[-58.717776,-34.608853],[-58.717498,-34.609688],[-58.718968,-34.610503],[-58.719713,-34.612307],[-58.719641,-34.613452],[-58.721079,-34.616284],[-58.723525,-34.6193],[-58.724134,-34.623616],[-58.723929,-34.626892],[-58.725001,-34.628394],[-58.724933,-34.6301],[-58.72694,-34.631299],[-58.727314,-34.633397],[-58.72952,-34.635122],[-58.731618,-34.637823],[-58.731896,-34.639266],[-58.731315,-34.641258],[-58.731742,-34.642561],[-58.73581,-34.643948],[-58.739236,-34.646249],[-58.740487,-34.6484],[-58.745721,-34.650958],[-58.746518,-34.652128],[-58.748283,-34.653127],[-58.748991,-34.654132],[-58.750682,-34.654796],[-58.753082,-34.657401],[-58.757549,-34.660482],[-58.759709,-34.660815],[-58.761403,-34.661667],[-58.7665,-34.662051],[-58.76776,-34.664223],[-58.768856,-34.665061],[-58.772615,-34.664784],[-58.778111,-34.666047],[-58.780091,-34.665963],[-58.786524,-34.670011],[-58.790798,-34.671304],[-58.794381,-34.673252],[-58.80421,-34.676056],[-58.806899,-34.677374],[-58.80965,-34.677314],[-58.80965,-34.680725],[-58.811383,-34.682263],[-58.814302,-34.682223],[-58.815438,-34.683802],[-58.816216,-34.683832],[-58.818311,-34.685589],[-58.820737,-34.68504],[-58.822931,-34.682703],[-58.823673,-34.682568],[-58.82549,-34.682988],[-58.82728,-34.68437],[-58.834345,-34.686162],[-58.839524,-34.686002],[-58.84473,-34.685204],[-58.845894,-34.684646],[-58.85419,-34.684514],[-58.860294,-34.685206],[-58.868429,-34.680829],[-58.876397,-34.674982],[-58.883346,-34.671757],[-58.884468,-34.668796],[-58.883892,-34.664671],[-58.882891,-34.663369],[-58.882917,-34.6603],[-58.882437,-34.659706],[-58.882968,-34.659199],[-58.88311,-34.655369],[-58.881846,-34.652018],[-58.881991,-34.650952],[-58.881183,-34.649869],[-58.881678,-34.645642],[-58.88307,-34.64275],[-58.882007,-34.640826],[-58.882212,-34.63927],[-58.880958,-34.632179],[-58.881894,-34.630307],[-58.881338,-34.628731],[-58.884556,-34.627965],[-58.884309,-34.627195],[-58.881171,-34.626038],[-58.88101,-34.625443],[-58.864113,-34.616882],[-58.872644,-34.603695],[-58.890951,-34.579812],[-58.885066,-34.577051],[-58.871895,-34.569821],[-58.863921,-34.564368],[-58.85599,-34.558141],[-58.849102,-34.550243],[-58.847501,-34.549171],[-58.846359,-34.547757],[-58.846833,-34.546877],[-58.846512,-34.546251],[-58.843587,-34.543203],[-58.841194,-34.539073],[-58.839836,-34.532936],[-58.837559,-34.53166],[-58.829994,-34.522474],[-58.830212,-34.5213],[-58.828628,-34.519377],[-58.828374,-34.517602],[-58.827587,-34.517006],[-58.82704,-34.515357],[-58.825182,-34.512759],[-58.824688,-34.509684],[-58.823771,-34.508367],[-58.811087,-34.521046]]]]}},{"type":"Feature","properties":{"etiqueta":"Morón"},"geometry":{"type":"MultiPolygon","coordinates":[[[[-58.616028,-34.588705],[-58.615398,-34.588844],[-58.592765,-34.607961],[-58.588799,-34.606092],[-58.572236,-34.628744],[-58.566712,-34.625903],[-58.556107,-34.634703],[-58.562059,-34.636502],[-58.561718,-34.637279],[-58.564377,-34.63799],[-58.570916,-34.638366],[-58.570261,-34.641345],[-58.581876,-34.64317],[-58.580707,-34.649398],[-58.583254,-34.650647],[-58.637207,-34.699601],[-58.638547,-34.700777],[-58.639379,-34.700621],[-58.640974,-34.704543],[-58.65539,-34.695822],[-58.659247,-34.692684],[-58.661008,-34.692348],[-58.660793,-34.691386],[-58.667381,-34.685988],[-58.653486,-34.631612],[-58.649002,-34.631393],[-58.621808,-34.633151],[-58.620379,-34.631419],[-58.619749,-34.629056],[-58.619618,-34.624608],[-58.618636,-34.623774],[-58.618194,-34.619244],[-58.619295,-34.617015],[-58.619054,-34.61498],[-58.619576,-34.612489],[-58.618598,-34.611429],[-58.619173,-34.609904],[-58.618247,-34.607781],[-58.618205,-34.606135],[-58.619718,-34.603898],[-58.619127,-34.598133],[-58.617841,-34.595567],[-58.6165,-34.588601],[-58.616028,-34.588705]]]]}},{"type":"Feature","properties":{"etiqueta":"Tres de Febrero"},"geometry":{"type":"MultiPolygon","coordinates":[[[[-58.619897,-34.546574],[-58.604581,-34.55776],[-58.562314,-34.591405],[-58.544764,-34.594234],[-58.543956,-34.595109],[-58.539358,-34.595575],[-58.538666,-34.595144],[-58.522972,-34.597563],[-58.531465,-34.615966],[-58.529211,-34.65464],[-58.556107,-34.634703],[-58.566712,-34.625903],[-58.572236,-34.628744],[-58.588799,-34.606092],[-58.592765,-34.607961],[-58.646336,-34.562968],[-58.645094,-34.562163],[-58.644177,-34.559994],[-58.643336,-34.559198],[-58.642247,-34.559172],[-58.640604,-34.558398],[-58.639578,-34.55588],[-58.635056,-34.554027],[-58.633501,-34.554119],[-58.632058,-34.552607],[-58.630772,-34.552094],[-58.630578,-34.54963],[-58.627572,-34.548371],[-58.626383,-34.546764],[-58.625057,-34.547076],[-58.623859,-34.545854],[-58.622494,-34.546612],[-58.62099,-34.545685],[-58.619897,-34.546574]]]]}}]}